EIN,Organization Name,City,State,Country,PC,Website,Email Addresses
300992605,Restoring Hope to Cities Foundation,Abbotsford Bc,,CANADA,FORGN,https://www.restoringhopetocities.com/,"18d2f96d279149989b95faf0a4b41882@sentry-next.wixpress.com,5d1795a2db124a268f1e1bd88f503500@sentry.wixpress.com,605a7baede844d278b89dc95ae0a9123@sentry-next.wixpress.com,8c4075d5481d476e945486754f783364@sentry.io,8eb368c655b84e029ed79ad7a5c1718e@sentry.wixpress.com,info@restoringhopetocities.com"
981500462,Fh Canada,Abbotsford Bc,,CANADA,FORGN,https://www.fhcanada.org/financials,
465115118,Kwei Foundation Inc.,Admiralty,,HONG KONG,"FORGN,POF",https://fconline.foundationcenter.org/fdo-grantmaker-profile,
854402313,Rock of Promise Foundation Inc.,Admiralty,,HONG KONG,"FORGN,POF",https://therf.org/,info@therf.org
474097210,Without Vowels Project,Ashkelon,,ISRAEL,FORGN,https://withoutvowels.org/wiki,
474102582,Victor Portons Foundation,Ashkelon,,ISRAEL,FORGN,https://www.israelgives.org/amuta,info@israelgives.org
271462287,Simasoh-Nani International,Bamako Bamako,,MALI,FORGN,https://sdgs.un.org/stakeholders,
873165134,Timbuktu Eye Foundation,Bamako Bamako,,MALI,FORGN,https://www.timbuktueye.org/home,timbuktueye@gmail.com
980078729,Board of Governors of the Banff Centre,Banff Alberta,,CANADA,FORGN,https://www.banffcentre.ca/banff-centre-board-governors,"Admissions@banffcentre.ca,PresentingRequest@banffcentre.ca,archives@banffcentre.ca,arts_info@banffcentre.ca,banffmountainfestival@banffcentre.ca,box_office@banffcentre.ca,conferences@banffcentre.ca,foip@banffcentre.ca,leadership@banffcentre.ca,library@banffcentre.ca,reservations@banffcentre.ca,sbb_info@banffcentre.ca,sbb_info@banffcentre.ca ,support@banffcentre.ca,webteam@banffcentre.ca,worldtourinfo@banffcentre.ca"
980647235,Banff Centre Foundation,Banff Alberta,,CANADA,FORGN,https://www.banffcentre.ca/banff-centre-foundation,"Admissions@banffcentre.ca,PresentingRequest@banffcentre.ca,archives@banffcentre.ca,arts_info@banffcentre.ca,banffmountainfestival@banffcentre.ca,box_office@banffcentre.ca,conferences@banffcentre.ca,foip@banffcentre.ca,leadership@banffcentre.ca,library@banffcentre.ca,reservations@banffcentre.ca,sbb_info@banffcentre.ca,sbb_info@banffcentre.ca ,support@banffcentre.ca,webteam@banffcentre.ca,worldtourinfo@banffcentre.ca"
365046180,Hands With Heart Foundation,Barcelona,,SPAIN,FORGN,https://handswithheartfoundation.org/,hello@handswithheartfoundation.org
464949367,Eugenia Balcells Foundation Inc.,Barcelona,,SPAIN,"FORGN,PF",https://eugeniabalcellsfoundation.org/en,info@eugeniabalcellsfoundation.org
320569891,Belize Natural Energy Charitable Trust Inc.,Belmopan,,BELIZE,FORGN,https://bnetrust.org/,info@bnetrust.org
365019729,Belize Fund for A Sustainable Future Inc.,Belmopan,,BELIZE,FORGN,https://belizefund.bz/,info@belizefund.bz
300505256,Simon Fraser University,Burnaby British Columb,,CANADA,FORGN,https://www.sfu.ca/,"MediaRelations@sfu.ca,SFU@2x.png,ca@sfu.ca,dialogue@sfu.ca,fass_rec@sfu.ca,grad-business@sfu.ca,gradstudies@sfu.ca,info@312main.ca,info@billreidgallery.ca,reginfo@sfu.ca,sfu-brand@sfu.ca,sfu-logo-only@2x.png"
980594983,D S R F Down Syndrome Research Foundation,Burnaby British Columb,,CANADA,FORGN,https://www.dsrf.org/,"info@DSRF.org,info@dsrf.org,logo__colour@2x-sized-300x91.png,logo__colour@2x-sized-300x91.png.webp,logo__colour@2x-sized.png,logo__colour@2x-sized.png.webp,logo__solid-black@2x-300x91.png,logo__solid-black@2x-300x91.png.webp,logo__solid-black@2x-768x233.png,logo__solid-black@2x-768x233.png.webp,logo__solid-black@2x.png,logo__solid-black@2x.png.webp"
237075452,Cambrian Heights Baptist Church,Calgary,,CANADA,FORGN,https://www.joinmychurch.org/churches,
237221636,Evangelical Free Church of Canada,Calgary,,CANADA,FORGN,https://efcc.ca/,"billt@efcc.ca,bradj@efcc.ca,cathyd@efcc.ca,dwightj@efcc.ca,eunicek@efcc.ca,gracem@efcc.ca,ike@efcc.ca,kirbyt@efcc.ca,laurak@efcc.ca,mariac@efcc.ca,mitchl@efcc.ca,murrayh@efcc.ca,neilb@efcc.ca,ruthl@efcc.ca,servebeyond@efcc.ca,servecanada@efcc.ca,sgm@efcc.ca,terryk@efcc.ca,youremail@gmail.com"
300663961,Health Reach Canada,Calgary Ab,,CANADA,FORGN,https://www.canada.ca/en,
800092086,American Friends of the University of Calgary Inc.,Calgary Ab,,CANADA,FORGN,https://www.ucalgary.ca/giving,"aditya.rayala@ucalgary.ca,ainsley.grant@ucalgary.ca,alumni@ucalgary.ca,andrea.morris@ucalgary.ca,awardgiving@ucalgary.ca,braydon.epp1@ucalgary.ca,catherine.billington@ucalgary.ca,craig.melton@ucalgary.ca,ellisle@ucalgary.ca,give@ucalgary.ca,jennifer.fournier@ucalgary.ca,jorge.torres@ucalgary.ca,legacygiving@ucalgary.ca,melissa.watamanuk@ucalgary.ca,sarah.parker1@ucalgary.ca,sarah.salus@ucalgary.ca,silvia.kallen@ucalgary.ca,smng@ucalgary.ca,someone@ucalgary.ca,suryana.thappa@ucalgary.ca,viviana.dambrosio@ucalgary.ca"
980537572,The J C Anderson Family Foundation,Calgary Ab,,CANADA,"FORGN,PF",https://fconline.foundationcenter.org/fdo-grantmaker-profile,
981084156,Lily Street Foundation,Calgary Ab,,CANADA,"FORGN,PF",https://fconline.foundationcenter.org/fdo-grantmaker-profile,
311602414,American Friends of the Calgary Health Trust Foundation,Calgary Alberta,,CANADA,"FORGN,PF",https://www.calgaryhealthfoundation.ca/,
311804919,The Canadian Hockey Foundation US,Calgary Alberta,,CANADA,FORGN,https://www.hockeycanada.ca/en-ca,
874399387,Project 55 Foundation Inc.,Calgary Alberta,,CANADA,FORGN,https://project-55.com/,"P55_Logo_B_RGB_210112@2x-300x64.png,P55_Logo_B_RGB_210112@2x-768x164.png,P55_Logo_B_RGB_210112@2x.png,RMHC_Chapter_logo@2x-1.png,RMHC_Chapter_logo@2x.png,lmercier@treadstonesports.com"
980127844,Alberta Bible College,Calgary Alberta,,CANADA,FORGN,https://www.abccampus.ca/,
980207096,Calgary Academy,Calgary Alberta,,CANADA,FORGN,https://calgaryacademy.com/,"AP@calgaryacademy.com,AR@calgaryacademy.com,alumni@calgaryacademy.com,bwittwer@calgaryacademy.com,info@calgaryacademy.com,lmeredith@calgaryacademy.com,privacy@calgaryacademy.com"
980677622,Canadian Constitution 2005 Foundation,Calgary Alberta,,CANADA,FORGN,https://theccf.ca/,
981667162,Connect Calgary Baptist Church,Calgary Alberta,,CANADA,FORGN,https://www.connectcalgary.ca/,"8145e969-dab8-4ee3-8a51-6e18ff480df6@2x.jpeg,amber@connectcalgary.ca,dan@connectcalgary.ca,hello@ConnectCalgary.ca,hello@connectcalgary.ca,kyle@connectcalgary.ca"
660843487,Virgin Islands Music Association Inc.,Charlotte Amalie,,BRITISH VIRGIN ISLANDS,FORGN,https://bvi.gov.vg/territorial-music,"AGC@gov.vg,Bvi_Fire@gov.vg,HOA@gov.vg,admin@rvipolice.vg,amlu@gov.vg,amlu@gov.vg  ,audit@gov.vg,bvicustoms@gov.vg,bvifishingcomplex@gov.vg,bvigovernor@gov.vg,bvipost@gov.vg,bvitaxes@gov.vg,bvitrade@gov.vg,cabinetoffice@gov.vg,cfd@gov.vg,complaints@gov.vg,cso@gov.vg,customerservice@gov.vg,ddm@gov.vg,ddm@gov.vg ,dfm@gov.vg,dgo@gov.vg,dlibraryservices@gov.vg,dmv@gov.vg,doaf@gov.vg,doit@gov.vg,dpp@gov.vg,dwm@gov.vg,dyas@gov.vg,education@gov.vg,ehd@gov.vg,electionsvi@gov.vg,enquiries@bvigazette.org,finance@gov.vg,finance@gov.vg  ,fisheries@gov.vg,fsab@gov.vg,gaffairs@gov.vg,gazette@gov.vg,gis@gov.vg,hmp@gov.vg,hrdbvi@gov.vg,ias@gov.vg,immigrationinfo@gov.vg,implementationunit@gov.vg,info@internalaudit.gov.vg,infocris@gov.vg,labour@gov.vg,landandsurveydept@gov.vg,landregistration@gov.vg,lat@gov.vg,magistratescourtjh@gov.vg,mcw@gov.vg,mec@gov.vg,menrcc@gov.vg,mfslt@gov.vg,ministryofhealth@gov.vg,mtcsd@gov.vg,nationalarchives_info@gov.vg,nrl@gov.vg,plantproduction@gov.vg,premier@gov.vg,pwd@gov.vg,safehaven@gov.vg,shersmith@gov.vg,sisterislandsoffice@gov.vg,socialdevelopment@gov.vg,supremecourt@gov.vg,tcp@gov.vg,treasury@gov.vg,tsmu@gov.vg,unescobvi@gov.vg,vet@gov.vg,viculture@gov.vg,vishipping@bvimaritime.vg,wsd@gov.vg"
660892722,Episcopal Charities of the Virgin Islands Inc.,Charlotte Amalie,,BRITISH VIRGIN ISLANDS,FORGN,https://www.province2.org/diocesan-news-stories,"jtyarsiah@gmail.com,saintjamesbb@gmail.com,stmichaelnj@gmail.com"
237283520,South Shore Community Service Association,Chester Nova Scotia,,CANADA,FORGN,https://ns.211.ca/services,help@ns.211.ca
980417559,Bonny Lea Charitable Foundation,Chester Nova Scotia,,CANADA,FORGN,https://bonnyleafarm.ca/foundation,"ajessome@bonnyleafarm.ca,contact@king-theme.com,efinney@bonnyleafarm.ca,firstinitiallastname@bonnyleafarm.ca,info@mumfordconnect.com,jdelong@bonnyleafarm.ca,klake@bonnyleafarm.ca,residentialservicesdirector@bonnyleafarm.ca,smacdonald@bonnyleafarm.ca"
660789822,Ground Strokes Tennis Club,Christiansted,,BRITISH VIRGIN ISLANDS,FORGN,https://bvitennis.com/,britishvita@gmail.com
660851752,Hope for Learning Academy Inc.,Christiansted,,BRITISH VIRGIN ISLANDS,FORGN,https://bvi.gov.vg/,"AGC@gov.vg,Bvi_Fire@gov.vg,HOA@gov.vg,admin@rvipolice.vg,amlu@gov.vg,amlu@gov.vg  ,audit@gov.vg,bvicustoms@gov.vg,bvifishingcomplex@gov.vg,bvigovernor@gov.vg,bvipost@gov.vg,bvitaxes@gov.vg,bvitrade@gov.vg,cabinetoffice@gov.vg,cfd@gov.vg,complaints@gov.vg,cso@gov.vg,customerservice@gov.vg,ddm@gov.vg,ddm@gov.vg ,dfm@gov.vg,dgo@gov.vg,dlibraryservices@gov.vg,dmv@gov.vg,doaf@gov.vg,doit@gov.vg,dpp@gov.vg,dwm@gov.vg,dyas@gov.vg,education@gov.vg,ehd@gov.vg,electionsvi@gov.vg,enquiries@bvigazette.org,finance@gov.vg,finance@gov.vg  ,fisheries@gov.vg,fsab@gov.vg,gaffairs@gov.vg,gazette@gov.vg,gis@gov.vg,hmp@gov.vg,hrdbvi@gov.vg,ias@gov.vg,immigrationinfo@gov.vg,implementationunit@gov.vg,info@internalaudit.gov.vg,infocris@gov.vg,labour@gov.vg,landandsurveydept@gov.vg,landregistration@gov.vg,lat@gov.vg,magistratescourtjh@gov.vg,mcw@gov.vg,mec@gov.vg,menrcc@gov.vg,mfslt@gov.vg,ministryofhealth@gov.vg,mtcsd@gov.vg,nationalarchives_info@gov.vg,nrl@gov.vg,plantproduction@gov.vg,premier@gov.vg,pwd@gov.vg,safehaven@gov.vg,shersmith@gov.vg,sisterislandsoffice@gov.vg,socialdevelopment@gov.vg,supremecourt@gov.vg,tcp@gov.vg,treasury@gov.vg,tsmu@gov.vg,unescobvi@gov.vg,vet@gov.vg,viculture@gov.vg,vishipping@bvimaritime.vg,wsd@gov.vg"
660879854,Ribbons for A Cure Inc.,Christiansted,,BRITISH VIRGIN ISLANDS,FORGN,https://ribbonsforacure.net/,
660993647,Youth Stepping Up Inc.,Christiansted,,BRITISH VIRGIN ISLANDS,FORGN,https://bvi.gov.vg/,"AGC@gov.vg,Bvi_Fire@gov.vg,HOA@gov.vg,admin@rvipolice.vg,amlu@gov.vg,amlu@gov.vg  ,audit@gov.vg,bvicustoms@gov.vg,bvifishingcomplex@gov.vg,bvigovernor@gov.vg,bvipost@gov.vg,bvitaxes@gov.vg,bvitrade@gov.vg,cabinetoffice@gov.vg,cfd@gov.vg,complaints@gov.vg,cso@gov.vg,customerservice@gov.vg,ddm@gov.vg,ddm@gov.vg ,dfm@gov.vg,dgo@gov.vg,dlibraryservices@gov.vg,dmv@gov.vg,doaf@gov.vg,doit@gov.vg,dpp@gov.vg,dwm@gov.vg,dyas@gov.vg,education@gov.vg,ehd@gov.vg,electionsvi@gov.vg,enquiries@bvigazette.org,finance@gov.vg,finance@gov.vg  ,fisheries@gov.vg,fsab@gov.vg,gaffairs@gov.vg,gazette@gov.vg,gis@gov.vg,hmp@gov.vg,hrdbvi@gov.vg,ias@gov.vg,immigrationinfo@gov.vg,implementationunit@gov.vg,info@internalaudit.gov.vg,infocris@gov.vg,labour@gov.vg,landandsurveydept@gov.vg,landregistration@gov.vg,lat@gov.vg,magistratescourtjh@gov.vg,mcw@gov.vg,mec@gov.vg,menrcc@gov.vg,mfslt@gov.vg,ministryofhealth@gov.vg,mtcsd@gov.vg,nationalarchives_info@gov.vg,nrl@gov.vg,plantproduction@gov.vg,premier@gov.vg,pwd@gov.vg,safehaven@gov.vg,shersmith@gov.vg,sisterislandsoffice@gov.vg,socialdevelopment@gov.vg,supremecourt@gov.vg,tcp@gov.vg,treasury@gov.vg,tsmu@gov.vg,unescobvi@gov.vg,vet@gov.vg,viculture@gov.vg,vishipping@bvimaritime.vg,wsd@gov.vg"
986001924,St. Croix Lions Club Inc.,Christiansted,,BRITISH VIRGIN ISLANDS,FORGN,https://e-clubhouse.org/sites,
660954707,Sailvi Inc.,Christiansted St. Croix,,BRITISH VIRGIN ISLANDS,FORGN,https://www.sailvi.org/,
660985674,Fitter Futures by Beeston Hill Inc.,Christiansted St. Croix,,BRITISH VIRGIN ISLANDS,FORGN,https://fitterfutures.org/,
661038226,Hands in Inc.,Christiansted St. Croix,,BRITISH VIRGIN ISLANDS,FORGN,https://bvi.gov.vg/,"AGC@gov.vg,Bvi_Fire@gov.vg,HOA@gov.vg,admin@rvipolice.vg,amlu@gov.vg,amlu@gov.vg  ,audit@gov.vg,bvicustoms@gov.vg,bvifishingcomplex@gov.vg,bvigovernor@gov.vg,bvipost@gov.vg,bvitaxes@gov.vg,bvitrade@gov.vg,cabinetoffice@gov.vg,cfd@gov.vg,complaints@gov.vg,cso@gov.vg,customerservice@gov.vg,ddm@gov.vg,ddm@gov.vg ,dfm@gov.vg,dgo@gov.vg,dlibraryservices@gov.vg,dmv@gov.vg,doaf@gov.vg,doit@gov.vg,dpp@gov.vg,dwm@gov.vg,dyas@gov.vg,education@gov.vg,ehd@gov.vg,electionsvi@gov.vg,enquiries@bvigazette.org,finance@gov.vg,finance@gov.vg  ,fisheries@gov.vg,fsab@gov.vg,gaffairs@gov.vg,gazette@gov.vg,gis@gov.vg,hmp@gov.vg,hrdbvi@gov.vg,ias@gov.vg,immigrationinfo@gov.vg,implementationunit@gov.vg,info@internalaudit.gov.vg,infocris@gov.vg,labour@gov.vg,landandsurveydept@gov.vg,landregistration@gov.vg,lat@gov.vg,magistratescourtjh@gov.vg,mcw@gov.vg,mec@gov.vg,menrcc@gov.vg,mfslt@gov.vg,ministryofhealth@gov.vg,mtcsd@gov.vg,nationalarchives_info@gov.vg,nrl@gov.vg,plantproduction@gov.vg,premier@gov.vg,pwd@gov.vg,safehaven@gov.vg,shersmith@gov.vg,sisterislandsoffice@gov.vg,socialdevelopment@gov.vg,supremecourt@gov.vg,tcp@gov.vg,treasury@gov.vg,tsmu@gov.vg,unescobvi@gov.vg,vet@gov.vg,viculture@gov.vg,vishipping@bvimaritime.vg,wsd@gov.vg"
660628085,Veterans Cricket Club Inc.,Christiansted Vi,,BRITISH VIRGIN ISLANDS,FORGN,https://opengovus.com/tax-exempt,
660687232,Yvonne Ashley Galiber Foundation - Yag Inc.,Christiansted Vi,,BRITISH VIRGIN ISLANDS,FORGN,https://www.yagfoundation.org/,"2062d0a4929b45348643784b5cb39c36@sentry.wixpress.com,605a7baede844d278b89dc95ae0a9123@sentry-next.wixpress.com,88170cb0c9d64f94b5821ca7fd2d55a4@sentry-next.wixpress.com,8c4075d5481d476e945486754f783364@sentry.io,8eb368c655b84e029ed79ad7a5c1718e@sentry.wixpress.com,info@yagfoundation.org"
660802060,Community Music Inc.,Christiansted Vi,,BRITISH VIRGIN ISLANDS,FORGN,https://bvi.gov.vg/territorial-music,"AGC@gov.vg,Bvi_Fire@gov.vg,HOA@gov.vg,admin@rvipolice.vg,amlu@gov.vg,amlu@gov.vg  ,audit@gov.vg,bvicustoms@gov.vg,bvifishingcomplex@gov.vg,bvigovernor@gov.vg,bvipost@gov.vg,bvitaxes@gov.vg,bvitrade@gov.vg,cabinetoffice@gov.vg,cfd@gov.vg,complaints@gov.vg,cso@gov.vg,customerservice@gov.vg,ddm@gov.vg,ddm@gov.vg ,dfm@gov.vg,dgo@gov.vg,dlibraryservices@gov.vg,dmv@gov.vg,doaf@gov.vg,doit@gov.vg,dpp@gov.vg,dwm@gov.vg,dyas@gov.vg,education@gov.vg,ehd@gov.vg,electionsvi@gov.vg,enquiries@bvigazette.org,finance@gov.vg,finance@gov.vg  ,fisheries@gov.vg,fsab@gov.vg,gaffairs@gov.vg,gazette@gov.vg,gis@gov.vg,hmp@gov.vg,hrdbvi@gov.vg,ias@gov.vg,immigrationinfo@gov.vg,implementationunit@gov.vg,info@internalaudit.gov.vg,infocris@gov.vg,labour@gov.vg,landandsurveydept@gov.vg,landregistration@gov.vg,lat@gov.vg,magistratescourtjh@gov.vg,mcw@gov.vg,mec@gov.vg,menrcc@gov.vg,mfslt@gov.vg,ministryofhealth@gov.vg,mtcsd@gov.vg,nationalarchives_info@gov.vg,nrl@gov.vg,plantproduction@gov.vg,premier@gov.vg,pwd@gov.vg,safehaven@gov.vg,shersmith@gov.vg,sisterislandsoffice@gov.vg,socialdevelopment@gov.vg,supremecourt@gov.vg,tcp@gov.vg,treasury@gov.vg,tsmu@gov.vg,unescobvi@gov.vg,vet@gov.vg,viculture@gov.vg,vishipping@bvimaritime.vg,wsd@gov.vg"
660806942,The St. Croix Orchid Society Inc.,Christiansted Vi,,BRITISH VIRGIN ISLANDS,FORGN,https://stcroixsource.com/2025,"advertising@visource.com,ananta.pancham@visource.com,editor@visource.com,kelsey@visource.com,legals@visource.com,michele.weichman@visource.com,visource@gmail.com,visourceart@gmail.com"
660852282,National Panks Inc.,Christiansted Vi,,BRITISH VIRGIN ISLANDS,FORGN,https://www.bvinpt.org/,"18d2f96d279149989b95faf0a4b41882@sentry-next.wixpress.com,2062d0a4929b45348643784b5cb39c36@sentry.wixpress.com,271e9fa3230b4eec94b02bf95780f5f2@sentry.wixpress.com,460ff4620fa44cba8df530afde949785@sentry.wixpress.com,5d1795a2db124a268f1e1bd88f503500@sentry.wixpress.com,605a7baede844d278b89dc95ae0a9123@sentry-next.wixpress.com,88170cb0c9d64f94b5821ca7fd2d55a4@sentry-next.wixpress.com,8c4075d5481d476e945486754f783364@sentry.io,8eb368c655b84e029ed79ad7a5c1718e@sentry.wixpress.com,9a65e97ebe8141fca0c4fd686f70996b@sentry.wixpress.com,bvinpt@bvinationalparkstrust.org,bvinpt@bvinpt.org,c183baa23371454f99f417f6616b724d@sentry.wixpress.com,dd0a55ccb8124b9c9d938e3acf41f8aa@sentry.wixpress.com,ed436f5053144538958ad06a5005e99a@sentry.wixpress.com"
660922699,Entre El Pueblo,Christiansted Vi,,BRITISH VIRGIN ISLANDS,FORGN,https://bvi.gov.vg/,"AGC@gov.vg,Bvi_Fire@gov.vg,HOA@gov.vg,admin@rvipolice.vg,amlu@gov.vg,amlu@gov.vg  ,audit@gov.vg,bvicustoms@gov.vg,bvifishingcomplex@gov.vg,bvigovernor@gov.vg,bvipost@gov.vg,bvitaxes@gov.vg,bvitrade@gov.vg,cabinetoffice@gov.vg,cfd@gov.vg,complaints@gov.vg,cso@gov.vg,customerservice@gov.vg,ddm@gov.vg,ddm@gov.vg ,dfm@gov.vg,dgo@gov.vg,dlibraryservices@gov.vg,dmv@gov.vg,doaf@gov.vg,doit@gov.vg,dpp@gov.vg,dwm@gov.vg,dyas@gov.vg,education@gov.vg,ehd@gov.vg,electionsvi@gov.vg,enquiries@bvigazette.org,finance@gov.vg,finance@gov.vg  ,fisheries@gov.vg,fsab@gov.vg,gaffairs@gov.vg,gazette@gov.vg,gis@gov.vg,hmp@gov.vg,hrdbvi@gov.vg,ias@gov.vg,immigrationinfo@gov.vg,implementationunit@gov.vg,info@internalaudit.gov.vg,infocris@gov.vg,labour@gov.vg,landandsurveydept@gov.vg,landregistration@gov.vg,lat@gov.vg,magistratescourtjh@gov.vg,mcw@gov.vg,mec@gov.vg,menrcc@gov.vg,mfslt@gov.vg,ministryofhealth@gov.vg,mtcsd@gov.vg,nationalarchives_info@gov.vg,nrl@gov.vg,plantproduction@gov.vg,premier@gov.vg,pwd@gov.vg,safehaven@gov.vg,shersmith@gov.vg,sisterislandsoffice@gov.vg,socialdevelopment@gov.vg,supremecourt@gov.vg,tcp@gov.vg,treasury@gov.vg,tsmu@gov.vg,unescobvi@gov.vg,vet@gov.vg,viculture@gov.vg,vishipping@bvimaritime.vg,wsd@gov.vg"
660746151,Virgin Island Track and Field Federation,Christiansted Virgin I,,BRITISH VIRGIN ISLANDS,FORGN,https://vitrackandfield.com/,"Vitff.gs@gmail.com,Vitff.p@gmail.com,Vitff.sd@gmail.com,Vitff.smd@gmail.com,keithsmithsr@gmail.com,vitff.p@gmail.com"
981118167,Soldiers Organization Inc.,Christiansted Virgin I,,BRITISH VIRGIN ISLANDS,FORGN,https://bvi.gov.vg/,"AGC@gov.vg,Bvi_Fire@gov.vg,HOA@gov.vg,admin@rvipolice.vg,amlu@gov.vg,amlu@gov.vg  ,audit@gov.vg,bvicustoms@gov.vg,bvifishingcomplex@gov.vg,bvigovernor@gov.vg,bvipost@gov.vg,bvitaxes@gov.vg,bvitrade@gov.vg,cabinetoffice@gov.vg,cfd@gov.vg,complaints@gov.vg,cso@gov.vg,customerservice@gov.vg,ddm@gov.vg,ddm@gov.vg ,dfm@gov.vg,dgo@gov.vg,dlibraryservices@gov.vg,dmv@gov.vg,doaf@gov.vg,doit@gov.vg,dpp@gov.vg,dwm@gov.vg,dyas@gov.vg,education@gov.vg,ehd@gov.vg,electionsvi@gov.vg,enquiries@bvigazette.org,finance@gov.vg,finance@gov.vg  ,fisheries@gov.vg,fsab@gov.vg,gaffairs@gov.vg,gazette@gov.vg,gis@gov.vg,hmp@gov.vg,hrdbvi@gov.vg,ias@gov.vg,immigrationinfo@gov.vg,implementationunit@gov.vg,info@internalaudit.gov.vg,infocris@gov.vg,labour@gov.vg,landandsurveydept@gov.vg,landregistration@gov.vg,lat@gov.vg,magistratescourtjh@gov.vg,mcw@gov.vg,mec@gov.vg,menrcc@gov.vg,mfslt@gov.vg,ministryofhealth@gov.vg,mtcsd@gov.vg,nationalarchives_info@gov.vg,nrl@gov.vg,plantproduction@gov.vg,premier@gov.vg,pwd@gov.vg,safehaven@gov.vg,shersmith@gov.vg,sisterislandsoffice@gov.vg,socialdevelopment@gov.vg,supremecourt@gov.vg,tcp@gov.vg,treasury@gov.vg,tsmu@gov.vg,unescobvi@gov.vg,vet@gov.vg,viculture@gov.vg,vishipping@bvimaritime.vg,wsd@gov.vg"
260122103,Hindu Temple and Community Center of Georgia Inc.,Coimbatore,,INDIA,FORGN,https://hindutempleofatlanta.org/,"HTAManager@hindutempleofatlanta.org,HTAZelle@HinduTempleofAtlanta.org,htamanager@hindutempleofatlanta.org"
272872925,Hindu Temple of Ohio Inc.,Coimbatore,,INDIA,FORGN,https://daytontemple.com/,info@daytontemple.com
461230633,Mavles Yoga & Spiritual Center,Coimbatore,,INDIA,FORGN,https://www.cntraveller.in/story,"digital@condenast.in,subscription@condenast.in"
834385617,Blessing 2 U Inc.,Dallas,,GEORGIA,FORGN,https://blessing2u.org/,contact@blessing2u.org
841731601,Montoya Boxing Gym Youth Development Program,Dallas,,AFGHANISTAN,FORGN,https://boxinggymsnear.me/places,"info@boxinggymsnear.me,info@sportsnews24.com,info@sportsnews24.com?subject=Gyms"
352677945,Partners in Education Ethiopia,Edmonton,,CANADA,FORGN,https://www.partnersinedethiopia.org/,"gcosco@partnersinedethiopia.org,user@domain.com"
581438275,The Classification Society,Edmonton,,CANADA,FORGN,http://theclassificationsociety.com/,
660855862,Iglesia De Hoy Inc.,Fajardo,,PUERTO RICO,FORGN,https://www.iglesiahoy.com/,informacion@iglesiahoy.com
660915723,Sonadores Christian Academy Fajardo Corporation,Fajardo,,PUERTO RICO,FORGN,https://opencorporates.com/companies,
237103810,University of New Brunswick,Fredericton New Brunsw,,CANADA,FORGN,https://www.unb.ca/,"FINADMIN@unbsj.ca,aaron.cao@unb.ca,amcdonal@unb.ca,chooseunb@unb.ca,cui.can@unb.ca,dai.nguyen@unb.ca,indiarecruit@unb.ca,international@unb.ca,j.dunnett@unb.ca,jashnosh.chahal@unb.ca,jjiang2@unb.ca,kara.h@unb.ca,kshipley@unb.ca,lexie.stewart@unb.ca,lgilks@unb.ca,lisa@unb.ca,meghan.sweeney@unb.ca,michael.macleod@unb.ca,msong.3@unb.ca,ors@unb.ca,orsfinhelp@unb.ca,partner@unb.ca,sarah.woodside2@unb.ca,scraig5@unb.ca,sgsaward@unb.ca,stephanie.lord@unb.ca,vpr@unb.ca"
311632108,Nature Trust of New Brunswick Inc.,Fredericton New Brunsw,,CANADA,FORGN,https://www.naturetrust.nb.ca/,
991966187,World Credit Organization,Fredericton New Brunsw,,CANADA,FORGN,https://www.ice8000.org/aenhw,
992058095,Ice8000 Kingdom,Fredericton New Brunsw,,CANADA,FORGN,https://www.ice8000.org/,
992085390,International Integrity Supervision Net,Fredericton New Brunsw,,CANADA,FORGN,https://www.ice8000.org/aenhw,
933842952,The New Humanitarian US Inc.,Geneva,,SWITZERLAND,FORGN,https://www.thenewhumanitarian.org/europe,
986001029,International Committee of the Red Cross,Geneva,,SWITZERLAND,FORGN,https://www.icrc.org/en,donation@icrc.org
823385128,Veteran Alliance USA Inc.,Gilbert Az,,AFGHANISTAN,FORGN,https://www.veteranallianceusa.org/,"046c982186afa15dc9513490293d26b1@o37417.ingest.sentry.io,18d2f96d279149989b95faf0a4b41882@sentry-next.wixpress.com,2062d0a4929b45348643784b5cb39c36@sentry.wixpress.com,271e9fa3230b4eec94b02bf95780f5f2@sentry.wixpress.com,460ff4620fa44cba8df530afde949785@sentry.wixpress.com,5d1795a2db124a268f1e1bd88f503500@sentry.wixpress.com,605a7baede844d278b89dc95ae0a9123@sentry-next.wixpress.com,78f7996315bc402f9dcb8a2f974b82d1@sentry.wixpress.com,88170cb0c9d64f94b5821ca7fd2d55a4@sentry-next.wixpress.com,8c4075d5481d476e945486754f783364@sentry.io,8eb368c655b84e029ed79ad7a5c1718e@sentry.wixpress.com,9a65e97ebe8141fca0c4fd686f70996b@sentry.wixpress.com,admin@veteranallianceusa.org,ed436f5053144538958ad06a5005e99a@sentry.wixpress.com,f36cc48fb72b4d298c835f2793cf3b84@sentry-next.wixpress.com"
853486158,18x18az,Gilbert Az,,AFGHANISTAN,FORGN,https://18x18az.org/,
300094019,Dalhousie Medical Research Foundation,Halifax Nova Scotia,,CANADA,FORGN,https://medicine.dal.ca/research-dal-med,
980051094,Mount Saint Vincent University,Halifax Nova Scotia,,CANADA,FORGN,https://www.msvu.ca/,"Jeremy.neilson@msvu.ca,Morgan.myshrall@msvu.ca,admissions@msvu.ca,aris.hernandez@msvu.ca,financial.services@msvu.ca,firstname.lastname@msvu.ca,graduate@msvu.ca,haley.macfadyen1@msvu.ca,helpdesk@msvu.ca,katherine.flynn2@msvu.ca,lincoln.smith23@msvu.ca,news@msvu.ca,online@msvu.ca,online@msvu.ca?subject=moodle%20help,questions@msvu.ca,registration@msvu.ca,theresa.meuse@msvu.ca,tia.tower@msvu.ca,tlc@msvu.ca,webadvisor@msvu.ca"
981358092,Saint Marys University,Halifax Nova Scotia,,CANADA,FORGN,https://www.smu.ca/,"alumni@smu.ca,hr@smu.ca,info@smu.ca,international.centre@smu.ca,recruitment@smu.ca,service.centre@smu.ca,sustainability@smu.ca"
986001098,Dalhousie University,Halifax Nova Scotia,,CANADA,FORGN,https://www.dal.ca/,"%20bronwyn.andrews@dal.ca,%20dalbrand@dal.ca,Catherine.Martin@dal.ca,Dalbrand@dal.ca,Emily.Huner@Dal.CaQuenta.Adams,Emily.Huner@Dal.CaQuenta.Adams@dal.ca,Meghann.Coleman@dal.ca,Natalie.McMullin@dal.ca,Shivani.Dave@dal.ca,Shivani.dave@dal.ca,Spencer.Giffin@dal.ca,Stephen.Hartlen@dal.ca,a.shrestha@dal.ca,adam.haller@dal.ca,adam.robertson@dal.ca,admissions@dal.ca,advising@dal.ca,amohan@mitacs.ca,anh.phan@dal.ca,annette.rushton@dal.ca,annie.laroche@dal.ca,arati.patel@dal.ca,ashiat.lawal-bolaji@dal.ca,avpa@dal.ca,awards@dal.ca,ayo.arowolo@dal.ca,b.hamilton-hinch@dal.ca,ben.goldberg@dal.ca,besocial@dal.ca,bprithiviraj@dal.ca,brennangillis@dal.ca,brittni.baird@dal.ca,bronwyn.andrews@dal.ca,catherine.martin@dal.ca,cearle@dal.ca,chantelle.falconer@dal.ca,cheryl.paris@dal.ca,christine.reid@dal.ca,cmc@dal.ca,community.engagement@dal.ca,craig.arthur@dal.ca,dalbrand@dal.ca,danielle.andres@dal.ca,david.spurrell@dal.ca,design.services@dal.ca,discipline.appeals@dal.ca,dsu@dal.ca,elders@dal.ca,elspeth.white@dal.ca,emilie.mossman@dal.ca,emma.cheng@dal.ca,emma.kay@dal.ca,erin.murphy@dal.ca,florence.millard@dal.ca,gaurav.chhabra@dal.ca,gitta@dal.ca,gjefferi@dal.ca,graduate.studies@dal.ca,graham.gagnon@dal.ca,helpdesk@dal.ca,hillary.bonin@dal.ca,innovate@dal.ca,j.karle@dal.ca,jalana.lewis@dal.ca,jaq-lin.larder@dal.ca,jcouch@dal.ca,jeff.larsen@dal.ca,jen.laurette@dal.ca,jennifer.bain@dal.ca,jfurze@dal.ca,jill.bennett@dal.ca,jocelyne.rankin@dal.ca,john.hope@dal.ca,joy.baillie@dal.ca,jy668853@dal.ca,kait.tornblom@dal.ca,karin.mclay@dal.ca,kazi.rahman@dal.ca,kristie.mcvicar@dal.ca,laura.hynes.jenkins@dal.ca,leanne.french.munn@dal.ca,linda.parker@dal.ca,lorraine.terrelonge@dal.ca,lucas.mancini@dal.ca,mackintoshv@dal.ca,marlies.rise@dal.ca,matt.hebb@dal.ca,matt.proctor@dal.ca,matthew.doyle@dal.ca,megan.johnson@dal.ca,melissa.mackay@dal.ca,michelle.gurrola-gal@dal.ca,mwcarew@dal.ca,nasil.nam@dal.ca,nataliia.franskevych@dal.ca,ngocanh.nguyen@dal.ca,och@dal.ca,ovpri@dal.ca,polina.baum-talmor@dal.ca,quenta.adams@dal.ca,randy.kelly@dal.ca,remi.toupin@dal.ca,research@dal.ca,residence@dal.ca,rick.ezekiel@dal.ca,s.sherwood@dal.ca,samuel.turpin@dal.ca,sara.murphy@dal.ca,sbeattie@dal.ca,shehu.mustafa@dal.ca,sheila.blair-reid@dal.ca,shelley.brown@dal.ca,sophia.fu@dal.ca,stay@dal.ca,stephen.hartlen@dal.ca,student.accounts@dal.ca,susan.haydt@dal.ca,sydney.dale-mcgrath@dal.ca,taiwo.ade-lawal@dal.ca,tim.maloney@dal.ca,xiaoyan.mao@dal.ca,ye.lin@dal.ca,yentl.lee@dal.ca,zane.sylliboy@dal.ca"
136163055,Friends of McMaster Incorporated,Hamilton Ontario,,CANADA,"FORGN,SOUNK",https://www.mcmaster.com/,chi.sales@mcmaster.com
237213309,McMaster University Ontario,Hamilton Ontario,,CANADA,FORGN,https://www.mcmaster.ca/,"comms@mcmaster.ca,daily@mcmaster.ca,resrch@mcmaster.ca"
133824844,Keren Tefert Yaacov,Jerusalem,,ISRAEL,"FORGN,PF",https://www.seedsofpeace.org/changemakers,"info@seedsofpeace.org,jerusalem@seedsofpeace.org,london@seedsofpeace.org,services@seedsofpeace.org"
134079395,Lozowick Family Foundation Inc.,Jerusalem,,IRAN,"FORGN,PF",https://www.instrumentl.com/990-report,
134082426,Nachalat Yisroel Foundation,Jerusalem,,ISRAEL,FORGN,https://www.instrumentl.com/990-report,
141782056,American Friends of the Jewish Bible Association Inc.,Jerusalem,,ISRAEL,FORGN,https://www.ifcj.org/,
201096061,Kamien Family Foundation,Jerusalem,,ISRAEL,"FORGN,PF",https://www.instrumentl.com/990-report,
237285905,Hebrew University Association Jerusalem Palestine,Jerusalem,,ISRAEL,FORGN,https://en.huji.ac.il/,"contactus@mail.huji.ac.il,marketing@savion.huji.ac.il"
330016684,Church School Service Inc.,Jerusalem,,ISRAEL,FORGN,http://ea-israel.org/members,john@doe.com
341596737,American Friends of Machon Hasbara,Jerusalem,,ISRAEL,FORGN,https://americanfriendsofmachonhasbara.us/,info@americanfriendsofmachonhasbara.us
612106878,Friends of Ufaratzta Center of Jerusalem Inc.,Jerusalem,,ISRAEL,FORGN,https://www.jpost.com/Not-Just-News,"ads@jpost.com,eedition@jpost.com,liat@jpost.com,subs@jpost.com,syndication@jpost.com,webads@jpost.com,ymags@jpost.com"
810757923,Jgive-Friends of Asor Fund USA Inc.,Jerusalem,,ISRAEL,FORGN,https://www.jgive.com/en,
922802237,Tuv Levav,Jerusalem,,ISRAEL,FORGN,https://www.tuv.com/usa,
980151689,Yad Sarah,Jerusalem,,ISRAEL,FORGN,https://yadsarah.org/,info@yadsarah.org.il
113452714,Friends of Yeshiva Chofetz Chaim Kolel-Israel,Jerusalem Israel,,ISRAEL,FORGN,https://www.careervillage.org/groups,"hello@careervillage.org,hello@careervillage.org?subject=PressInquiry,team@careervillage.org,team@careervillage.org?subject=Connecting%20with%20Jared%20Chung"
137265426,Lomdim Tr,Jerusalem Israel,,ISRAEL,FORGN,https://united-jed.org/fr,lamorim@2x.png
363898502,American Friends of Machon Meir Inc.,Jerusalem Israel,,ISRAEL,FORGN,https://machonmeir.net/,"english1@emeir.org.il,someone@example.com"
522007608,American Friends of Machon Daniel Inc.,Jerusalem Jerusalem,,ISRAEL,FORGN,https://machondaniel.org/contact,office@machondaniel.org
981647482,Alnayzak - Jerusalem Innovation Park Ra,Jerusalem Jerusalem,,ISRAEL,FORGN,https://alnayzak.org/,info@alnayzak.org
660724081,Guardians of Culture Inc.,Kingshill,,BRITISH VIRGIN ISLANDS,FORGN,https://gocusvi.org/,jumbieproductions@msn.com
660844474,Anatha Org,Kingshill,,BRITISH VIRGIN ISLANDS,FORGN,https://bvi.gov.vg/,"AGC@gov.vg,Bvi_Fire@gov.vg,HOA@gov.vg,admin@rvipolice.vg,amlu@gov.vg,amlu@gov.vg  ,audit@gov.vg,bvicustoms@gov.vg,bvifishingcomplex@gov.vg,bvigovernor@gov.vg,bvipost@gov.vg,bvitaxes@gov.vg,bvitrade@gov.vg,cabinetoffice@gov.vg,cfd@gov.vg,complaints@gov.vg,cso@gov.vg,customerservice@gov.vg,ddm@gov.vg,ddm@gov.vg ,dfm@gov.vg,dgo@gov.vg,dlibraryservices@gov.vg,dmv@gov.vg,doaf@gov.vg,doit@gov.vg,dpp@gov.vg,dwm@gov.vg,dyas@gov.vg,education@gov.vg,ehd@gov.vg,electionsvi@gov.vg,enquiries@bvigazette.org,finance@gov.vg,finance@gov.vg  ,fisheries@gov.vg,fsab@gov.vg,gaffairs@gov.vg,gazette@gov.vg,gis@gov.vg,hmp@gov.vg,hrdbvi@gov.vg,ias@gov.vg,immigrationinfo@gov.vg,implementationunit@gov.vg,info@internalaudit.gov.vg,infocris@gov.vg,labour@gov.vg,landandsurveydept@gov.vg,landregistration@gov.vg,lat@gov.vg,magistratescourtjh@gov.vg,mcw@gov.vg,mec@gov.vg,menrcc@gov.vg,mfslt@gov.vg,ministryofhealth@gov.vg,mtcsd@gov.vg,nationalarchives_info@gov.vg,nrl@gov.vg,plantproduction@gov.vg,premier@gov.vg,pwd@gov.vg,safehaven@gov.vg,shersmith@gov.vg,sisterislandsoffice@gov.vg,socialdevelopment@gov.vg,supremecourt@gov.vg,tcp@gov.vg,treasury@gov.vg,tsmu@gov.vg,unescobvi@gov.vg,vet@gov.vg,viculture@gov.vg,vishipping@bvimaritime.vg,wsd@gov.vg"
273661758,Bully Baby Rescue Inc.,Kingshill Vi,,BRITISH VIRGIN ISLANDS,FORGN,https://bullybabyrescue.org/,info@bullybabyrescue.org
660979183,Nuvo Recovery Services Inc.,Kingshill Vi,,BRITISH VIRGIN ISLANDS,FORGN,https://bvirecovery.vg/,"Procurement@bvirecovery.vg,feedback@bvirecovery.vg,procurement@bvirecovery.vg,recruitment@bvirecovery.vg"
661014130,St. Croix Science Teachers Association Inc.,Kingshill Vi,,BRITISH VIRGIN ISLANDS,FORGN,https://www.virginislandsdailynews.com/news,"accounting@dailynews.vi,bkiser@dailynews.vi,circulation@dailynews.vi,classifieds@dailynews.vi,communications@viwma.org,cwalcott@dailynews.vi,ebedminster@dailynews.vi,gyandel@dailynews.vi,jyoung@dailynews.vi,letters@dailynews.vi,ljamil@dailynews.vi,lowedavis@dailynews.vi,notices@dailynews.vi,obits@dailynews.vi,online@dailynews.vi,production@dailynews.vi,ryan@dailynews.vi,scarlson@dailynews.vi,skirkpatrick@dailynews.vi"
237099472,Queens University at Kingston Department of Financial Services,Kingston On,,CANADA,FORGN,https://www.queensu.ca/financialservices,"accounts.payable@queensu.ca,accounts.receivable@queensu.ca,alannah.boisvert@queensu.ca,alex.birchard@queensu.ca,anderson.rouse@queensu.ca,andy.green@queensu.ca,banking@queensu.ca,brian.oneill@queensu.ca,dale.best@queensu.ca,dan.langham@queensu.ca,derek.evans@queensu.ca,dmb8@queensu.ca,expenses@queensu.ca,finance.security@queensu.ca,finance.training@queensu.ca,finance.webmaster@queensu.ca,finance@queensu.ca,financial.reporting@queensu.ca,finpcico@queensu.ca,hartk@queensu.ca,hsthelp@queensu.ca,ishana.gopaul@queensu.ca,joseph.choi@queensu.ca,kim.murphy@queensu.ca,margaret.burns@queensu.ca,margaret.gibson@queensu.ca,matiasj@queensu.ca,med5@queensu.ca,nicole.mackinnon@queensu.ca,payroll.services@queensu.ca,petrin@queensu.ca,qu.sr@queensu.ca,rebecca.coupland@queensu.ca,research.accounting@queensu.ca,t2200@queensu.ca,tasha.drexler@queensu.ca,tony.overvelde@queensu.ca,travel.advances@queensu.ca,umer.a@queensu.ca"
521960422,US Foundation for Queens University at Kingston,Kingston On,,CANADA,FORGN,https://www.queensu.ca/,"admission@queensu.ca,bc.welcome@queensu.ca,event.services@queensu.ca,exams@queensu.ca,fees@queensu.ca,hradmin@queensu.ca,records@queensu.ca,review@queensu.ca,sgspa.reception@queensu.ca,solus@queensu.ca,tours@post.queensu.ca,tours@queensu.ca,transcpt@queensu.ca,unicomm@queensu.ca,urdigital@queensu.ca,urdigital@queensu.ca?subject=website%20feedback"
301218167,Burman Univerity Foundation,Lacombe Ab,,CANADA,FORGN,https://www.burmanu.ca/,"alumni@burmanu.ca,info@burmanu.ca,sfs@burmanu.ca,ssdesk@burmanu.ca"
611951638,A Better World Helping Hands USA,Lacombe Ab,,CANADA,FORGN,https://www.abwcanada.ca/usa-donations,info@abwcanada.ca
311746249,Friends of the Canadian Family Inc.,Langley Bc,,CANADA,FORGN,https://friends.ca/,"friends@friends.ca,marla.boltman@friends.ca,media@friends.ca"
473384664,Northwest Baptist Theological College,Langley Bc,,CANADA,FORGN,https://nbseminary.ca/,
980439803,Wellspring Foundation for Education,Langley Bc,,CANADA,FORGN,https://thewellspringfoundation.org/,
981156450,Signal Hill Life Education Society,Langley Bc,,CANADA,FORGN,https://thesignalhill.com/,"BTIcropped@550w.png,Favicon@32x.png,info@thesignalhill.com"
237204465,Trinity Western University,Langley British Columb,,CANADA,FORGN,https://www.twu.ca/,"Allison.Welch@twu.ca,Finance@twu.ca,Jonathan.Waind@twu.ca,LLCadmin@twu.ca,LLCinfo@twu.ca,Richard.Chandra@twu.ca,Sarah.Martin@twu.ca,Trina.pinzon@twu.ca,WellnessCentre@twu.ca,aaron.wall@twu.ca,admissions@twu.ca,aklilu.mulat@twu.ca,allison.welch@twu.ca,ann.barnardball@twu.ca,awards@twu.ca,brian.kerr@twu.ca,daniel.lybbert@twu.ca,humanresources@twu.ca,info@twu.ca,james.tweedy@twu.ca,jennifer.adkins@twu.ca,kristi.hopf@twu.ca,laird@twu.ca,mariah.neily@twu.ca,rina.Pinzon@twu.ca,rochelle.mcpherson@twu.ca,rrhea@twu.ca,spencer.epp@twu.ca,studentlife@twu.ca,sue.funk@twu.ca,tim.shulba@twu.ca,todd.martin@twu.ca"
873185352,Timberwise Charitable Foundation,Langley British Columb,,CANADA,FORGN,https://timberwisecharitable.org/,"contact@timberwisecharitable.org,name@email.com"
133785442,Great Pacific Foundation,Local,,CANADA,"FORGN,PF",https://www.asiapacific.ca/,"apfcanada-msme@asiapacific.ca,atip.coordinator@asiapacific.ca,communications@asiapacific.ca,info@asiapacific.ca,michael.roberts@asiapacific.ca,notifications@app.bamboohr.com,rosie.bolderston@asiapacific.ca"
473032905,Inference the International Review of Science Inc.,Local,,FRANCE,"FORGN,POF",https://inference-review.com/,"contact@inference-review.com,inferencereview@gmail.com"
981251641,Prairie Centre for Christian Education,Local,,CANADA,FORGN,https://pcce.ca/,"gmonsma@pcce.ca,hvanderhoek@pcce.ca,jhorlings@pcce.ca,office@pcce.ca"
043392655,International Psychoanalytical Association Fund Delaware,London,,UNITED KINGDOM,FORGN,https://www.ipa.world/,mark@ipa.world
133211128,World Federation of Societies of Anaesthesiologists,London,,UNITED KINGDOM,FORGN,https://wfsahq.org/,"advocacy@wfsahq.org,comms@wfsahq.org,drnaveenmalhotra@yahoo.co.in,memberships@wfsahq.org,president@pafsaco.org,saarcaahq@gmail.com,secretariat@pafsaco.org"
133823577,American Friends of English National Opera Inc.,London,,UNITED KINGDOM,FORGN,https://www.eno.org/support-us,
134028661,Redress Trust Limited,London,,UNITED KINGDOM,FORGN,https://redress.org/,"info@redress.org,logo@2x.png"
264577639,American Friends of Sentebale Foundation,London,,UNITED KINGDOM,FORGN,https://sentebale.org/,"fundraising@sentebale.org,info@entebale.org,info@sentebale.org,media@sentebale.org"
320481578,1421 Research Education and Exploration Foundation,London,,UNITED KINGDOM,FORGN,https://www.1421foundation.org/,
384025866,Fight for Peace Inc.,London,,UNITED KINGDOM,FORGN,https://fightforpeace.net/,"info@fightforpeace.net,info@lutapelapaz.org,up@fightforpeace.net"
421778609,Harrison-Frank Family Foundation US,London,,UNITED KINGDOM,"FORGN,PF",https://harrisonfrankfoundation.com/,
611735944,Jocks Influence Limited,London,,UNITED KINGDOM,"FORGN,PF",https://find-and-update.company-information.service.gov.uk/company,
813418775,Relief Brigade Inc.,London,,UNITED KINGDOM,FORGN,https://rrtglobal.org/gb,
980036091,Royal Institute of International Affairs,London,,UNITED KINGDOM,FORGN,https://www.chathamhouse.org/,
980362884,Figo Charitable Foundation,London,,UNITED KINGDOM,"FORGN,PF",https://www.figo.org/about-us,figo@figo.orgFIGO
980670335,Black Heart Foundation US,London,,UNITED KINGDOM,FORGN,https://blackheartfoundation.org/welcome,info@blackheartfoundation.org
991728239,Listening to the Other Side,London,,UNITED KINGDOM,FORGN,https://listeningto.org/start,edward@listeningto.org
300246732,Genesis America Inc.,London London,,UNITED KINGDOM,"FORGN,PF",https://www.genesis.com/uk,"ask@uk.genesis.com,privacy@eu.genesis.com,yourname@email.com"
930853086,Starburst Foundation,London London,,UNITED KINGDOM,FORGN,https://www.starburstfoundation.com/,"605a7baede844d278b89dc95ae0a9123@sentry-next.wixpress.com,8eb368c655b84e029ed79ad7a5c1718e@sentry.wixpress.com,mail@example.com"
474177131,Pugtastic 7 Pug Rescue - No Borders Inc.,London On,,CANADA,FORGN,https://pug.rescueshelter.com/ca,
870793309,Wealth Producers Ministries,London On,,CANADA,FORGN,https://wealthproducers.com/,
136620923,University of Western Ontario Foundation Inc.,London Ontario,,CANADA,FORGN,https://www.uwo.ca/finance,"cashier@uwo.ca,financial.services@uwo.ca"
341535722,Shantymens Christian Association of United States of America,London Ontario,,CANADA,FORGN,https://www.scainternational.org/,info@scainternational.org
612105452,Fathers for Fathers USA,London Ontario,,CANADA,FORGN,https://fathersforfathers.org/,"info@fathersforfathers.org,info@fathersforfathersusa.org"
980058317,St. Peters Seminary Corporation of London in Ontario,London Ontario,,CANADA,FORGN,https://www.stpetersseminary.ca/,"Adrienne.Co-Dyre@kings.uwo.ca,Adrienne.co-dyre@kings.uwo.ca,David.Howie@spseminary.ca,Frances.Barnard@spseminary.ca,Frances.barnard@spseminary.ca,Maria.serodio@spseminary.ca,Maria.serodio@spseminary.ca?subject=Conference%20Services%20at%20St.%20Peter's%20Seminary,Ted.Sinclair@spseminary.ca,accrediting@ats.edu,adigio2@uwo.ca,adigiov2@uwo.ca,adrienne.co-dyre@kings.uwo.ca,aknigh28@uwo.ca,amomney@uwo.ca,atownend@uwo.ca,bgketela@uwo.ca,bketelaars@dol.ca,cmccon4@uwo.ca,dave.mero@spseminary.ca,dgrecco@uwo.ca,dgucharm@uwo.ca,dperrin@uwaterloo.ca,frances.barnard@spseminary.ca,gducharm@uwo.ca,gketela@uwo.ca,gvanschyndel@dol.ca,jcomiske@uwo.ca,jdool@uwo.ca,jennifer.clark@spseminary.ca,jennifer.clark@spseminary.ca?subject=Please%20remove%20me%20from%20the%20Alumni%20Directory,jkillor5@uwo.ca,jkuntz4@uwo.ca,jpanchaud@dol.ca,jpatte46@uwo.ca,maria.serodio@spseminary.ca,maria.serodio@spseminary.ca?subject=Conference%20Services%20at%20St.%20Peter's%20Seminary,momney@uwo.ca,mprieur@dol.ca,mtfox@uwo.ca,nmeyer5@huron.uwo.ca,pamszej@dol.ca,pbaillargeon@dol.ca,pbaillargeon@uwo.ca,pbeorchi@uwo.ca,pierrecharles43@hotmail.com,r.renaud@dol.ca,rances.barnard@spseminary.ca,reception@spseminary.ca,renaud@dol.ca,rrenaud@dol.ca,stephania.welter@spseminary.ca,stpetersmusicdirector@gmail.com,t.hartnett@hamiltondiocese.com,ted.sinclair@spseminary.ca,ted.sinclair@spseminary.ca?subject=Privacy%20Policy%20Question,thartnett@hamiltondiocese.com"
980661838,Ivey Business School Foundation,London Ontario,,CANADA,"FORGN,SO",https://www.ivey.org/,
981613534,Huron University College,London Ontario,,CANADA,FORGN,https://huronu.ca/,"aking94@huron.uwo.ca,alex.vargas@huron.uwo.ca,ben.bryan@huron.uwo.ca,housing@huron.uwo.ca,huclibrary@uwo.ca,hurit@uwo.ca,huron@uwo.ca,huroncomm@uwo.ca,huronhr@huron.uwo.ca,huronhr@huron.uwo.ca?subject=Accessibility Request,huronmanager@browns.ca,huronsss@uwo.ca,huronwellness@huron.uwo.ca,ipek.aydin@huron.uwo.ca,jepp5@uwo.ca,justin.pilon@huron.uwo.ca,k%73%63hade4@uwo.ca,mjparker@huron.uwo.ca,namra.amrohi@huron.uwo.ca,privacy@huron.uwo.ca,ray.wu@huron.uwo.ca,sarah.shelton@huron.uwo.ca,studentbilling@huron.uwo.ca,tcompea@uwo.ca,tram.hoang@huron.uwo.ca,zayn.nasser@huron.uwo.ca"
986001623,University of Western Ontario,London Ontario,,CANADA,FORGN,https://www.uwo.ca/index.html,"accessibility@uwo.ca,alumni@uwo.ca,giving@uwo.ca,goabroad@uwo.ca,gradapps@uwo.ca,housing@uwo.ca,hrhelp@uwo.ca,media@uwo.ca,res-serv@uwo.ca,web@uwo.ca,welcome@uwo.ca"
300160254,1600 Avenue,Los Angeles Ca,,GERMANY,FORGN,https://www.whitehouse.gov/contact,email@example.com
863248637,Tee Divas and Tee Dudes Golf Club Foundation,Los Angeles Ca,,CANADA,FORGN,https://teedivas-dudesgolf.com/,"Info@TeeDivas-DudesGolf.com,info@TeeDivas-DudesGolf.com,info@teedivas-dudesgolf.com"
270260235,William and Mary Singer Family Foundation,Mississauga On,,CANADA,"FORGN,PF",https://www.canadahelps.org/en,"info@canadahelps.org,media@canadahelps.org"
300515313,Hari Krishan Publications,Mississauga On,,CANADA,FORGN,https://www.iskcon.org/,
356050271,Impact Ministry Group Church Planting Inc.,Mississauga On,,CANADA,FORGN,https://www.impactministrygroup.org/,user@domain.com
463141903,Just Energy Foundation USA Inc.,Mississauga On,,CANADA,"FORGN,PF",https://justenergy.com/blog,bg-info@2x.png
834592263,Save the Bull Trout,Missoula Mt.,,CANADA,FORGN,https://www.canada.ca/en,
886688451,Unity for Childrens Education Organization,Missoula Mt.,,CAMBODIA,FORGN,https://uceschool.org/,info@apollodigital.com.au
237226533,Union Deglises Baptistes Francaises Au Canada,Montreal,,CANADA,FORGN,https://unionbaptiste.com/trouver-une-eglise,"ebndieppe@gmail.com,egebo@on.aibn.com,eglise_des_adorateurs@yahoo.com,eglisesae@gmail.com,eglisesouffledevie@live.ca,esbaptiste7835@yahoo.ca,espoiretvie.nb@gmail.com,info@eebr.ca,info@egliselaboussole.com,info@epat.ca,infoeebaa@hotmail.com,lj.berger@eebr.ca,nelmedia1@gmail.com,pasteurjdasilva@gmail.com,roussymemorial@hotmail.com,s.couture@eebr.ca,simonhebert@live.com,ssbienvenue@hotmail.com,tabernaclesarepta@hotmail.com"
301412762,Pissed Organization Inc.,Montreal,,CANADA,FORGN,https://www.canada.ca/en,
980032043,Macdonald Stewart Foundation,Montreal,,CANADA,"FORGN,PF",https://www.msfoundation.org/index.html,
986001248,La Compagnie De Jesus,Montreal,,CANADA,FORGN,https://jesuits.ca/,"16053_241@2x-300x253.png,16053_241@2x.png,416-962-4501supportus@jesuits.ca,6G3A0381@2x.png,CANcommunication@jesuites.org,CANprovince@jesuits.org,CANvocations@jesuits.org,CommLifeSlides_074@2x-300x194.png,CommLifeSlides_074@2x.png,Laddison@jesuits.org,canadvancedir@jesuits.org,canshreception@jesuits.org,cfranks@jesuits.org,dambroise@jesuites.org,gforest@jesuits.org,jguerrier@jesuites.org,mdecarlo@jesuits.org,mgoldberg@jesuites.org,rwong@jesuits.org,supportus@jesuits.ca,ueavocations@jesuits.org,umivocpro1@jesuits.org,umivocpro2@jesuits.org,wblakeney@jesuits.org,wrye@jesuits.org"
986001321,Salvation Army of England,Montreal,,CANADA,FORGN,https://salvationarmy.ca/,"Gina.Haggett@salvationarmy.ca,Glenn.van-Gulik@salvationarmy.ca,Jamie.Locke@salvationarmy.ca,Pam.Goodyear@salvationarmy.ca,al.hoeft@salvationarmy.ca,brigitte.st-germain@armeedusalut.ca,brigitte_st-germain@armeedusalut.ca,communications@salvationarmy.ca,donor.questions@salvationarmy.ca,guestservices@salvationarmy.ca,heritage.centre@salvationarmy.ca"
066039988,Wiegand Memorial Foundation Inc.,Montreal Qc,,CANADA,"FORGN,PF",https://wiegandfoundation.org/,
272515889,Societe Maxcen-Math Maxcen-Math Society,Montreal Qc,,CANADA,FORGN,https://www.maxmaths.org/index.php,"Housing@maxcen.org,Math@maxmaths.org"
384107840,International Xenotransplantation Association,Montreal Qc,,CANADA,FORGN,https://tts.org/ixa-about,
431809268,Society for Institutional and Organizational Economics,Montreal Qc,,CANADA,FORGN,https://www.sioe.org/,"editor@sioe.org,webmaster@sioe.org"
986001012,Eldee Foundation,Montreal Qc,,CANADA,"FORGN,PF",https://fconline.foundationcenter.org/fdo-grantmaker-profile,
030356850,Kosa Communications Ltd.,Montreal Quebec,,CANADA,FORGN,https://www.kosamusic.com/contact-us,info@kosamusic.com
134045482,International Pediatric Transplant Association Inc.,Montreal Quebec,,CANADA,FORGN,https://tts.org/ctrms-resources,"ifr@intestinalregistry.org,info@iptapedstx.org,nele.vandewinkel@uzleuven.be,sections@tts.org"
237172320,Universite De Montreal Succursale A Quebec,Montreal Quebec,,CANADA,FORGN,https://www.umontreal.ca/en,mediassociaux@umontreal.ca
237348742,Transplantation Society,Montreal Quebec,,CANADA,FORGN,https://www.cst-transplant.ca/,
301152035,Split Inc.,Montreal Quebec,,CANADA,FORGN,https://www.splitofficial.com/,"605a7baede844d278b89dc95ae0a9123@sentry-next.wixpress.com,79baaa8e09c746d2b7401643b99792e0@sentry.wixpress.com,8c4075d5481d476e945486754f783364@sentry.io,8eb368c655b84e029ed79ad7a5c1718e@sentry.wixpress.com,9a65e97ebe8141fca0c4fd686f70996b@sentry.wixpress.com,support@splitofficial.com"
320588339,Intestinal Rehabilitation and Transplant Association,Montreal Quebec,,CANADA,FORGN,https://tts.org/irta-join,"christina.belza@sickkids.ca,ifr@intestinalregistry.org,info@iptapedstx.org,membership@tts.org,nele.vandewinkel@uzleuven.be,sections@tts.org,suzanne.landis@tts.org"
364927940,Cell Transplant & Regenerative Medicine Society Inc.,Montreal Quebec,,CANADA,FORGN,https://tts.org/ctrms-about,
611995257,Transplant Infectious Disease Inc.,Montreal Quebec,,CANADA,FORGN,https://onlinelibrary.wiley.com/journal,
752990161,Friends of Sir M B Davis Jewish General Hospital,Montreal Quebec,,CANADA,"FORGN,SOUNK",https://www.jgh.ca/about-us,"benevolat.ccomtl@ssss.gouv.qc.ca,equipe.srisis.ccomtl@ssss.gouv.qc.ca,jghvip@gmail.com,library.jgh@mail.mcgill.ca,recrutement.ccomtl@ssss.gouv.qc.ca"
980031193,The Research Institute of the McGill University Health Centre,Montreal Quebec,,CANADA,FORGN,https://rimuhc.ca/,"CIM.OR-simulation@muhc.mcgill.ca,alexandra.kindrat@muhc.mcgill.ca,bioinformatics.rimuhc@mcgill.ca,carolyn.baglole@mcgill.ca,ciro.piccirillo@mcgill.ca,clinical.research@muhc.mcgill.ca,communications@muhc.mcgill.ca,edi.ri@muhc.mcgill.ca,emilie.chan-thim@muhc.mcgill.ca,guenievre.grondin@affiliate.mcgill.ca,histopathology.rimuhc@mcgill.ca,immunophenotyping.rimuhc@mcgill.ca,jacinthe.baril@muhc.mcgill.ca,joanne.krief@affiliate.mcgill.ca,kim.gardner@mail.mcgill.ca,lenka.schorova@mail.mcgill.ca,mohsen.damavandi@muhc.mcgill.ca,molecularimaging.rimuhc@mcgill.ca,ourania.tsatas@mail.mcgill.ca,patricia.hales@affiliate.mcgill.ca,ri.it@muhc.mcgill.ca,ricommunications@muhc.mcgill.ca,sail.rimuhc@mcgill.ca,stephane.laporte@mcgill.ca,veronica.atehortua@muhc.mcgill.ca,yvonne.gardner@affiliate.mcgill.ca"
980077279,Montreal Association for the Blind Foundation,Montreal Quebec,,CANADA,FORGN,https://www.fightingblindness.ca/,"agungor@fightingblindness.ca,avicioso@fightingblindness.ca,bdainard@fightingblindness.ca,cparry@fightingblindness.ca,cropped-Recite-logo-350px-@2x-300x96.png,cropped-Recite-logo-350px-@2x.png,fknights@fightingblindness.ca,gmaxfield@fightingblindness.ca,healthinfo@fightingblindness.ca,info@fightingblindess.ca,info@fightingblindness.ca,info@reciteme.com,jalexanderson@fightingblindness.ca,jalvarez@fightingblindness.ca,jjones@fightingblindness.ca,jkoumandaros@fightingblindness.ca,kaina@fightingblindness.ca,kclinch@fightingblindness.ca,legacy@fightingblindness.ca,lmoniz@fightingblindness.ca,mgaudry@fightingblindness.ca,mineson@fightingblindness.ca,mtabirara@fightingblindness.ca,pkhanna@fightingblindness.ca,tastolfo@fightingblindness.ca,timran@fightingblindness.ca,ucarpenter@fightingblindness.ca,ukanagendiran@fightingblindness.ca"
980151321,National Theatre School of Canada,Montreal Quebec,,CANADA,FORGN,https://ent-nts.ca/en,"billetterie@ent-nts.ca,info.monument@ent-nts.ca,info@ent-nts.ca,info@monumentnational.com"
980183709,Federation Cja,Montreal Quebec,,CANADA,FORGN,https://www.federationcja.org/en,
980465529,Sir Mortimer B Davis Jewish General Hospital Foundation,Montreal Quebec,,CANADA,FORGN,https://www.jgh.ca/about-us,"benevolat.ccomtl@ssss.gouv.qc.ca,equipe.srisis.ccomtl@ssss.gouv.qc.ca,jghvip@gmail.com,library.jgh@mail.mcgill.ca,recrutement.ccomtl@ssss.gouv.qc.ca"
981596753,Presbyterian College Montreal,Montreal Quebec,,CANADA,FORGN,https://presbyteriancollege.ca/,"marcpotvin@mst-etm.ca,prezrezdean@pcmtl.ca"
981735754,Pathy Family Foundation,Montreal Quebec,,CANADA,"FORGN,PF",https://pathyfoundation.ca/,"info@pathyfoundation.com,info@pathyfoundation.com?subject=Website General Inquiry"
986001153,Royal Institution for the Advancement of Learning-Mcgill Uni,Montreal Quebec,,CANADA,FORGN,https://www.thecanadianencyclopedia.ca/en,
986001162,Sir Mortimer B Davis Jewish General Hospital,Montreal Quebec,,CANADA,FORGN,https://www.jgh.ca/about-us,"benevolat.ccomtl@ssss.gouv.qc.ca,equipe.srisis.ccomtl@ssss.gouv.qc.ca,jghvip@gmail.com,library.jgh@mail.mcgill.ca,recrutement.ccomtl@ssss.gouv.qc.ca"
521580447,African Economic Research Consortium Inc.,Nairobi,,KENYA,FORGN,https://aercafrica.org/,"AERC-ED@sri-executive.com,AERC-ED@sri-executive.com?subject=Executive%20Director%20Inquiry,AERC-FB-1080x1080px@2x.jpg,Mailchimp@2x-1.jpg,alfred.maina@oxygene.co.ke,communications@aercafrica.org,training@aercafrica.org,website@2x-1-2.jpg,website@2x.jpg"
521953157,International Livestock Research Institute,Nairobi,,KENYA,FORGN,https://www.ilri.org/,"ILRI-Ethiopia@cgiar.org,ILRI-Kenya@cgiar.org"
800948823,Partnership for Economic Policy Inc.,Nairobi,,KENYA,FORGN,https://www.pep-net.org/,"info@pep-net.org,pep-nairobi@pep-net.org"
820661387,Zephaniah Owidi Odongo Memorial Foundation Inc.,Nairobi,,KENYA,FORGN,https://zoomemorialfoundation.org/,"info@zoomemorialfoundation.org,localpartnersfb@zoomemorialfoundation.org"
900698745,Partnership for African Social and Governance Research Inc.,Nairobi,,KENYA,FORGN,https://www.pasgr.org/,info@pasgr.org
261291618,Tyndale Association for Christian Education,North York Ontariom,,CANADA,FORGN,https://www.tyndale.ca/,"StudentITHelp@tyndale.ca,accessibilityservice@tyndale.ca,admissions@tyndale.ca,advising@tyndale.ca,alumni@tyndale.ca,businessoffice@tyndale.ca,cae@tyndale.ca,campusservices@tyndale.ca,careerservices@tyndale.ca,communication@tyndale.ca,contact@tyndale.ca,counselling@tyndale.ca,employment@tyndale.ca,financialaid@tyndale.ca,foundation@tyndale.ca,library@tyndale.ca,president@tyndale.ca,registration@tyndale.ca,sfs@tyndale.ca,stuliferec@tyndale.ca,tcpi@tyndale.ca,thtc@tyndale.ca,tim@tyndale.ca,tsfc@tyndale.ca,webteam@tyndale.ca"
980405326,Toronto Farsi School,North York Ontariom,,CANADA,FORGN,https://torontofarsischool.com/,info@torontofarsischool.com
981263645,University of Ontario Institute of Technology,Oshawa On,,CANADA,FORGN,https://ontariotechu.ca/,"GradStudies@ontariotechu.ca,admissions@ontariotechu.ca,admissions@uoit.ca,advancement@ontariotechu.ca,amanda.cooper@ontariotechu.ca,brad.macisaac@ontariotechu.ca,careercentre@ontariotechu.ca,carol.rodgers@ontariotechu.ca,carolyn.mcgregor@ontariotechu.ca,catherine.davidson@ontariotechu.ca,connect@ontariotechu.ca,connect@uoit.ca,engagement@ontariotechu.ca,equity@ontariotechu.ca,hossam.kishawy@ontariotechu.ca,hrgeneral@ontariotechu.ca,indigenous@ontariotechu.ca,info@dc-otresidence.ca,info@dc-otresidence.ca?subject=I want to book a residence tour,international@ontariotechu.ca,irc@ontariotechu.ca,james.barnett@ontariotechu.ca,jamie.bruno@ontariotechu.ca,jennifer.alsop@ontariotechu.ca,jennifer.macinnis@ontariotechu.ca,joe.stokes@ontariotechu.ca,julie.childerhose@ontariotechu.ca,ken.wilson@ontariotechu.ca,krista.hester@ontariotechu.ca,les.jacobs@ontariotechu.ca,lindsay.coolidge@uoit.ca,mary.bluechardt@ontariotechu.ca,nicola.crow@ontariotechu.ca,outreach@ontariotechu.ca,peter.stoett@ontariotechu.ca,president@ontariotechu.ca,president@uoit.ca,provost@ontariotechu.ca,researchpartnerships@ontariotechu.ca,ruth.nyaamine@ontariotechu.ca,sarah.cantrell@ontariotechu.ca,sarah.thrush@ontariotechu.ca,someone@example.com,studentaccessibility@ontariotechu.ca,studentlearning@ontariotechu.ca,testcentre@ontariotechu.ca,uoitweb@gmail.com,webteam@uoit.net"
981519260,Lessons for Living Ministries,Oshawa On,,CANADA,FORGN,http://l4ltv.com/,Bill@L4Ltv.com
010674736,Us-Japan Relationship Fund Inc.,Other ,,JAPAN,FORGN,https://us-jf.org/ja,"info@us-jf.org,japan@us-jf.org,jobs@us-jf.org,programs@us-jf.org"
020327710,Rindge Firefighters Association,Other ,,AFGHANISTAN,FORGN,https://rindgefire.org/,
030424472,Kingdom Harvest Ministries International,Other ,,CANADA,FORGN,https://khmi.org/,info@khmi.org
030474336,Think Tank Romania Inc.,Other ,,ROMANIA,FORGN,https://rethinkromania.ro/en,"contact@rethinkromania.ro,iulia.hainarosie@cnipmmr.ro"
043328623,Triglav Circle,Other ,,FRANCE,FORGN,https://triglavcircleonline.org/,
043778039,Macedonia Community Action Project,Other ,,ARMENIA,FORGN,https://sca.am/en,
060706038,Bermuda Institute of Ocean Sciences Bios Inc.,Other ,,BERMUDA,FORGN,https://bios.asu.edu/,"BIOS.development@bios.asu.edu,BIOS.education@bios.asu.edu,BIOS.hr@bios.asu.edu,BIOS.info@bios.asu.edu,BIOS.reservations@bios.edu,HRESC@asu.edu,MarineOps@bios.asu.edu,OceanAcademy@bios.asu.edu,bios.development@bios.asu.edu,bios.hr@bios.asu.edu,bios.reservations@bios.edu,customerservice@asu.edu,infosec@asu.edu,privacy@asu.edu"
061497455,Hodgman Family Foundation Tr,Other ,,SWITZERLAND,"FORGN,PF",https://fconline.foundationcenter.org/fdo-grantmaker-profile,
112518719,Lennie Tristano Jazz Foundation Inc.,Other ,,FRANCE,FORGN,https://jazzinfo.org/artist,
116030604,Worlds Womans Christian Temperance Union,Other ,,NORWAY,FORGN,https://www.hviteband.no/Om%20oss,landskontoret@hviteband.no
116605083,Kingjay Foundation Trust,Other ,,ISRAEL,"FORGN,PF",https://fconline.foundationcenter.org/fdo-grantmaker-profile,
133537034,Stuttgart Veterans of Foreign Wars Post 10810,Other ,,GERMANY,"EO,FORGN",https://vfw10810.org/,"StephanieAddisonMail@gmail.com,vaveocommunications@va.gov"
133582797,American Friends of Kryat Melech,Other ,,ISRAEL,FORGN,https://www.leket.org/en,info@leket.org
133793639,Plural Arts International Inc.,Other ,,GERMANY,FORGN,http://pluralarts.de/,
133810233,Martin and Mirash Ivanaj Foundation,Other ,,ALBANIA,FORGN,https://ivanaj-foundations.org/,info@ivanaj-foundations.orgOffice
134164140,International Financial Reporting Standards Foundation,Other ,,UNITED KINGDOM,FORGN,https://www.ifrs.org/,"%20fsa_credential@ifrs.org,FSA_Credential@ifrs.org,Fsa_credential@ifrs.org,Sustainability_Alliance@ifrs.org,fsa_credential@ifrs.org,licences@ifrs.org,sustainability_alliance@ifrs.org,sustainability_licensing@ifrs.org,tac@ifrs.org"
137030069,Lewart Fam Charitable Tr,Other ,,ISRAEL,"FORGN,PF",https://www.instrumentl.com/990-report,
141980939,Eagle Eye Evangelistic Enterprises Inc.,Other ,,COSTA RICA,FORGN,https://www.eeeeinc.com/leadership,
161701355,Resonance Project Foundation,Other ,,FRANCE,FORGN,https://www.resonance-project.eu/welcome,"EnlitEurope2024_EUProjectsZoneBanners_1200x1200-e1728557184814-500x383@2x.jpg,lightbulbs_web-e1718272698643-500x383@2x.png,presentation-e1725621724276-500x383@2x.png"
200105601,Jerusalem Institute for Market Studies Inc.,Other ,,ISRAEL,FORGN,https://onthinktanks.org/think-tank,
201008111,Snider Cemetery Association,Other ,,AFGHANISTAN,"EO,FORGN",https://www.chamberofcommerce.com/united-states,
201430313,American Friends of the Franco American Institute Inc.,Other ,,FRANCE,"FORGN,SOUNK",https://fr.usembassy.gov/services,"HRDSupportFrance@state.govHRDSupportFrance,USAStrasbourg@state.gov,agparis@usda.gov,hudakoval@state.gov,office.paris@trade.gov,usabordeaux@state.gov,usalyon@state.gov,usarennes@state.gov"
201453701,Green Youth Wrestling Club Inc.,Other ,,AFGHANISTAN,FORGN,https://www.leaguelineup.com/welcome.asp,
201554230,Courtland Town Association,Other ,,AFGHANISTAN,FORGN,https://courtlandtown.org/,courtlandtownassociation@gmail.com
201567510,Robinson and Page Family Scholar- ship Foundation,Other ,,UNITED KINGDOM,"FORGN,PF",https://fconline.foundationcenter.org/fdo-grantmaker-profile,
201851576,Pulaski Wresting Booster Club Inc.,Other ,,AFGHANISTAN,FORGN,https://www.nonprofitinfomart.org/organization,
202032957,Old Road Fund Inc.,Other ,,ANTIGUA & BARBUDA,FORGN,https://curtainbluff.com/,"curtainbluff@curtainbluff.com,curtainbluff@jpublicrelations.com,info@r-recommends.com"
202866021,Society for Neuroeconomics Inc.,Other ,,CANADA,FORGN,https://neuroeconomics.org/,
203193115,American Friends of Uhn Inc.,Other ,,CANADA,FORGN,https://uhnfoundation.ca/who-we-are,
203317540,International School Psychology Association Inc.,Other ,,CYPRUS,FORGN,https://ispaweb.org/,"baas@csp.edu,bnastasi@tulane.edu,callueng@rowan.edu,dshribe@luc.edu,huebner@mailbox.sc.edu,ispacentraloffice@ispaweb.org,jc.guillemard@wanadoo.fr,kevin.a.woods@manchester.ac.uk,logo-ispa-@05x.png,logo-ispa-@075x.png,logo-ispa-@2x.png,mcfarlandm@unk.edu,mfurlong@education.ucsb.edu,snhart@gmail.com,wgr@ispaweb.org,yiota.dimitropoulou@ispaweb.org"
203835742,Arizona Shooting Sports Education Foundation,Other ,,CAMEROON,FORGN,https://az.usayess.org/,
204416398,Hadden Family Foundation,Other ,,CANADA,"FORGN,PF",https://tfss.ca/2016,info@tfss.ca
205228905,Hall County Quilters Guild Inc.,Other ,,THE GAMBIA,FORGN,https://hallcountyquiltguild.com/,
205478637,Bobs and Crow Lakes Foundation,Other ,,CANADA,FORGN,https://bobsandcrowlakes.ca/about-us,name@email.com
205537750,Acc Keene Farm Inc.,Other ,,CANADA,"FORGN,SOUNK",https://alpineclubmontreal.ca/hut-and-camping,"access@alpineclubmontreal.ca,communications@alpineclubmontreal.ca,eletter@accmontreal.ca,keenefarm@alpineclubmontreal.ca,leadership@alpineclubmontreal.ca,marketing@alpineclubmontreal.ca,membership@alpineclubmontreal.ca,outings@alpineclubmontreal.ca,pastchair@alpineclubmontreal.ca,reservations@alpineclubmontreal.ca,secretaire@alpineclubmontreal.ca,sectionchair@alpineclubmontreal.ca,socials@alpineclubmontreal.ca,treasurer@alpineclubmontreal.ca,webmaster@alpineclubmontreal.ca"
208092666,Fr Joseph Klaus Association to Benefit Koc Council 8759 Inc.,Other ,,NEW CALEDONIA,FORGN,https://nonprofitlocator.org/organizations,
208394751,Challengeaid Foundation,Other ,,UNITED KINGDOM,FORGN,https://www.challengeaid.org/,info@challengeaid.org
208519039,The US Sheridan College Foundation Inc.,Other ,,CANADA,FORGN,https://www.sheridancollege.ca/,"academic-history@sheridancollege.ca,allisha.seguire@sheridancollege.ca,alumni@sheridancollege.ca,alumni@sheridancollege.ca%20,alumni@sheridancollege.ca?subject=Alumni Inquiry,anam.ahmad@sheridancollege.ca,askanadvisor@sheridancollege.ca,askanadvisor@sheridancollege.ca?subject=Question about Accessibility at Sheridan,askmarketing@sheridancollege.ca,askpsb@sheridancollege.ca,caps@sheridancollege.ca,caps@sheridancollege.ca?subject=Question%20about%20Continuing%20and%20Professional%20Studies,cils@sheridancollege.ca,communications@sheridancollege.ca,communications@sheridancollege.ca?subject=Media Inquiry,davis.als@sheridancollege.ca,equity@sheridancollege.ca,freedomofspeech@sheridancollege.ca,generator@sheridancollege.ca,hmc.als@sheridancollege.ca,hr@sheridancollege.ca,infosheridan@sheridancollege.ca,infosheridan@sheridancollege.ca?subject=General Inquiry,infosheridan@sheridancollege.ca?subject=Question about Admissions,privacy@sheridancollege.ca,ryan.kelly2@sheridancollege.ca,sheridanworkscareers@sheridancollege.ca,specialevents@lifetouch.com,svrs@sheridancollege.ca,trafalgar.als@sheridancollege.ca,user@example.com"
222514884,Institute for Research in Classical Philosophy and Science Inc.,Other ,,CANADA,FORGN,https://ircps.org/,"AestimatioStaff@gmail.com,bowen@IRCPS.org,bowen@ircps.org,rochberg@berkeley.edu,smastorakou@mpiwg-berlin.mpg.de"
233019085,Society for Economic Design,Other ,,AUSTRALIA,FORGN,https://sites.google.com/site,
237069575,University of Saskatchewan,Other ,,CANADA,FORGN,https://www.usask.ca/,"StudentCentral1@usaskca1.onmicrosoft.com,admissions@usask.ca,alumni.office@usask.ca,giving@usask.ca,grad.studies@usask.ca,itsupport@usask.ca"
237169963,Bridge Street United Church,Other ,,CANADA,FORGN,http://www.bridgestreetchurch.com/,admin@bridgestchurch.com
237213057,Port Williams United Baptist Community Church,Other ,,CANADA,FORGN,https://www.pwubc.org/,"christianne@pwubc.org,office@pwubc.org,pwubcpastor@gmail.com,user@domain.com"
237214286,St. Pauls Angelican Church,Other ,,CANADA,FORGN,https://stpaulshalifax.org/,"office@stpaulshalifax.org,rector@stpaulshalifax.org,stpaulshalifax1749@gmail.com"
237225998,Synod of the Diocese of Niagara,Other ,,CANADA,FORGN,https://niagaraanglican.ca/synod,
237253795,Bishops University Foundation,Other ,,CANADA,"FORGN,SOUNK",https://www.ubishops.ca/alumni-relations-and-philanthropy-office,"BishopsUniversityResidenceLife@ubishops.ca,Sebastien.Lebel-Grenier@ubishops.ca,admissions@ubishops.ca,alebeau@ubishops.ca,alumni@ubishops.ca,amorgan@ubishops.ca,anna.grant@ubishops.ca,blazena.sokol@ubishops.ca,bujump@gmail.com,camps@ubishops.ca,cestevez@ubishops.ca,chosen-sprite@2x.png,deborah.langford@ubishops.ca,edi@ubishops.ca,eric.gendron@ubishops.ca,intramurals@ubishops.ca,jgobeil@ubishops.ca,jimmy.couturier@ubishops.ca,joachim.jean-jules@ubishops.ca,joannie.st-germain@ubishops.ca,karine.boutin@ubishops.ca,kelly.dean-feldman@ubishops.ca,kelly.reid@ubishops.ca,lyssa.paquette@ubishops.ca,mboucher@ubishops.ca,portersoffice@ubishops.ca,printshop@ubishops.ca,recruitment@ubishops.ca,residence@ubishops.ca,shelby.major@ubishops.ca,soe@ubishops.ca,studentaccounts@ubishops.ca,wilton.burgos@ubishops.ca,wsb@ubishops.ca"
237259907,Esk-Omi Mission Inc.,Other ,,CANADA,FORGN,https://www.canadahelps.org/en,"info@canadahelps.org,media@canadahelps.org"
237282029,Half Moon Bay Foundation,Other ,,CANADA,FORGN,https://www.canadahelps.org/en,"info@canadahelps.org,media@canadahelps.org"
237320162,Saint Vincents Home,Other ,,MEXICO,FORGN,https://cuddly.com/shelter,"me@example.com,support@cuddly.com"
237327231,Evangelical Lutheran Church of Canada,Other ,,CANADA,FORGN,https://elcic.ca/,"cbrooks@elcic.ca,ccrivici@elcic.ca,cramirez@elcic.ca,dmendoza@elcic.ca,gpeterson@elcic.ca,info@elcic.ca,office@elcic.ca,panthony-idoko@elcic.ca,pgehrs@elcic.ca,pwall@elcic.ca,sjohnson@elcic.ca,tgallop@elcic.ca"
251501364,Flying Medical Service Inc.,Other ,,EAST AFRICA,FORGN,https://flyingmedicalservice.org/,
260497773,Winnipeg Foundation USA,Other ,,CANADA,"FORGN,SOUNK",https://www.wpgfdn.org/,
262308632,International Theosophy Conferences Inc.,Other ,,NETHERLANDS,FORGN,https://www.theosophyconferences.org/,
262633300,Bavubuka Foundation,Other ,,CANADA,FORGN,https://bavubuka.org/,
262768195,Omnilogy Inc.,Other ,,PHILIPPINES,FORGN,https://www.idealist.org/en,"bradley@idealist.org,casey.smith@example.com,support@idealist.org,u003esupport@idealist.org"
262928247,Colorectal Cancer Association of America,Other ,,CANADA,FORGN,https://www.colorectalcancercanada.com/,"1-1-500x383@2x.png,2-1-500x383@2x.png,Fermentation-Icon@2x-1-200x159.png.webp,Fermentation-Icon@2x-1.png.webp,Formation-Icon@2x-150x150.png.webp,Formation-Icon@2x-66x66.png.webp,RE-Absorb-Icon@2x-150x150.png.webp,RE-Absorb-Icon@2x-66x66.png.webp,Untitled-design-1-500x383@2x.png,Untitled-design-5-500x383@2x.png,Untitled-design2-500x383@2x.png,barrys@colorectalcancercanada.com,info@colorectalcancercanada.com"
263131390,San Joaqin Valley Water Leadership Forum,Other ,,AFGHANISTAN,FORGN,https://nonprofitlocator.org/organizations,
264070376,Small Arms Survey USA Inc.,Other ,,SWITZERLAND,FORGN,https://www.smallarmssurvey.org/,"media@smallarmssurvey.org,news@smallarmssurvey.org,sas@smallarmssurvey.org"
270206386,United Nations Football Club Inc.,Other ,,CENTRAL AFRICAN REPUBL,FORGN,http://www.unitednationsfc.org/,"contact@unitednationsfc.org,contact@unitednationsfc.org subject=Contact%20from%20UNFC%20website"
271389628,Personal Philanthropy,Other ,,GERMANY,FORGN,https://www.stiftungen.org/en,
271508704,Limbo Up Foundation Inc.,Other ,,BERMUDA,"FORGN,POF",https://www.royalgazette.com/other,
271785415,Sport Changes Life Foundation,Other ,,UNITED KINGDOM,FORGN,https://sportchangeslife.com/,"d.shazier@sportchangeslife.com,info@sportchangeslife.com,m.graves@sportchangeslife.com,m.sherry@sportchangeslife.com"
272032896,Avril Lavigne Foundation,Other ,,CANADA,FORGN,https://www.theavrillavignefoundation.org/,
274626399,Thomasville North Carolina Memorial Day Parade and Ceremony,Other ,,NEW CALEDONIA,FORGN,https://www.the-dispatch.com/entertainment,"circulation@thetimesnews.com,classified@thetimesnews.com,glucas@hpenews.com,jervin@hpenews.com,jill.doss-raines@the-dispatch.com,jmcclure@newsargus.com,lbowers@the-dispatch.com,obits@the-dispatch.com,storain@thetimesnews.com"
275105087,Deacons Hope Rescue,Other ,,AFGHANISTAN,FORGN,https://www.deaconshope.org/,
275191021,New Family Worship Center,Other ,,ROMANIA,FORGN,https://newfamilyworshipcenter.org/,"info@ndiscovered.com,newfamily@newfamilyworshipcenter.org,pastortrwiggins@yahoo.com"
300002577,Association of International School in Africa,Other ,,KENYA,FORGN,https://aisa.or.ke/,"accounts@aisa.or.ke,conferences@aisa.or.ke,director@aisa.or.ke,info@aisa.or.ke"
300050801,Community Foundation of Prince Edward Island,Other ,,CANADA,FORGN,https://www.cfpei.ca/,"ebourgeois@cfpei.ca,khudson@cfpei.ca,twilson@cfpei.ca"
300078108,Rambam Health Corporation,Other ,,ISRAEL,FORGN,https://www.rambam.org.il/en,
300136665,Friends of Hong Kong Charities Inc.,Other ,,HONG KONG,FORGN,https://fohkc.com/,
300151282,Shalva Israel Assoc to Relieve the Handicapped Child and Family,Other ,,ISRAEL,FORGN,https://www.shalva.org/,"CanadianFriends@shalva.org,info@shalva.org,info@shalvauk.or,info@shalvauk.org,leo@shalva-usa.org"
300189203,Amigour Asset Management Ltd.,Other ,,ISRAEL,FORGN,https://www.amigour.co.il/,
300193723,Taylor College and Seminary,Other ,,CANADA,FORGN,https://kairos.edu/legacy-partners,"bpohlmeier@kairos.edu,info@kairos.edu,nhelling@kairos.edu,nhelling@sfseminary.edu,registrar@kairos.edu,shandas@kairos.edu"
300220168,Gary and Lori Neighbor Ministries,Other ,,MEXICO,FORGN,https://abundantlifechapala.com/about,
300257635,University of Kings College,Other ,,CANADA,FORGN,https://ukings.ca/,"admissions@ukings.ca,awards@ukings.ca,candice.macdonald@ukings.ca,karen.eull@ukings.ca,nicola.pulling@ukings.ca,registrar@ukings.ca"
300272740,Frenchtown Civic Organization,Other ,,BRITISH VIRGIN ISLANDS,FORGN,https://www.frenchheritagemuseumvi.org/about-us,"605a7baede844d278b89dc95ae0a9123@sentry-next.wixpress.com,79baaa8e09c746d2b7401643b99792e0@sentry.wixpress.com,88170cb0c9d64f94b5821ca7fd2d55a4@sentry-next.wixpress.com,8eb368c655b84e029ed79ad7a5c1718e@sentry.wixpress.com,9a65e97ebe8141fca0c4fd686f70996b@sentry.wixpress.com,fhmuseum@vipowernet.net,ftco@frenchheritagemuseumvi.org"
300279904,World Green Building Council Inc.,Other ,,CANADA,FORGN,https://worldgbc.org/,"mcarrero@worldgbc.org,media@worldgbc.org"
300303438,Meso-American Reef Fund,Other ,,GUATEMALA,FORGN,https://marfund.org/en,info@marfund.org
300346161,Indigenous Pathways,Other ,,CANADA,FORGN,https://sac-isc.gc.ca/eng,
300641596,Possibilities International,Other ,,CANADA,FORGN,https://www.canadahelps.org/en,"info@canadahelps.org,media@canadahelps.org"
300650351,Twin City Families Inc.,Other ,,CHINA,FORGN,https://www.tcf-china.com/,sales@tcf-china.com
300886200,International C I C Foundation,Other ,,UNITED KINGDOM,FORGN,https://icicf.org/,contact@icicf.org
311216785,Filipino American Memorial Endowment Fame Inc.,Other ,,PHILIPPINES,FORGN,https://filipino-americanmemorials.org/,fame@amchamphilippines.com
311631204,Fundy Community Foundation,Other ,,CANADA,FORGN,https://www.fundycommunityfoundation.ca/,"alyssa@fundycommunityfoundation.ca,kirsten@fundycommunityfoundation.ca"
311672361,University of Prince Edward Island Foundation US Inc.,Other ,,CANADA,FORGN,https://www.upei.ca/,"admin@upeisu.ca,alumni@upei.ca,amfitzgerald@upei.ca,apply@upei.ca,artsadmin@upei.ca,avc@upei.ca,bookstore@upei.ca,brinklow@upei.ca,business@upei.ca,careerservices@upei.ca,cgallant@upei.ca,co-op@upei.ca,communications@upei.ca,conference@upei.ca,contracts@upei.ca,cpo@upei.ca,daeadmin@upei.ca,eap@upei.ca,elearning@upei.ca,equity@upei.ca,experientialed@upei.ca,fairtreatment@hratlantic.ca,financialservices@upei.ca,fmworkorders@upei.ca,fsdewedesign@upei.ca,healthcentre@upei.ca,helpdesk@upei.ca,hse@upei.ca,humanresource@upei.ca,ikeras@upei.ca,inte@upei.ca,jarod.cook@dexterra.com,jlgauthier@upei.ca,kohalloran@upei.ca,medicine@upei.ca,mratchford@upei.ca,nursing@upei.ca,ocii@upei.ca,ocuniah@upei.ca,office@upeifa.ca,panthercentral@upei.ca,pdp@upei.ca,president@upei.ca,president@upeifa.ca,procurement@upei.ca,reference@upei.ca,registrar@upei.ca,research@upei.ca,residence@upei.ca,rmoffat@upei.ca,science@upei.ca,security@upei.ca,studentaccounts@upei.ca,studentserv@upei.ca,studentsupport@upei.ca,studyabroad@upei.ca,sukidd@upei.ca,sv-pro@upei.ca,tlc@upei.ca,vicepresident@upeifa.ca,vpaf@upei.ca,vpar@upei.ca,web@upei.ca,ygong@upei.ca"
311680128,Return to Jesus Christ Ministries,Other ,,CANADA,FORGN,https://www.christforfirstnations.com/missions,geppinga@telus.net
311681440,Tim Horton Childrens Foundation Inc.,Other ,,CANADA,FORGN,https://timscamps.com/what-we-do,"donations@timscamps.com,info@thcf.com,info@timscamps.com,kananaskis@thcf.com,kentucky@thcf.com,parrysound@thcf.com,quyon@thcf.com,registrar@timscamps.com,stgeorge@thcf.com,tatamagouche@thcf.com,whiteshell@thcf.com,work@timscamps.com"
311681446,Tim Horton Childrens Foundation US Inc.,Other ,,CANADA,"FORGN,SOUNK",https://timscamps.com/,"donations@timscamps.com,info@thcf.com,info@timscamps.com,kananaskis@thcf.com,kentucky@thcf.com,parrysound@thcf.com,quyon@thcf.com,registrar@timscamps.com,stgeorge@thcf.com,tatamagouche@thcf.com,whiteshell@thcf.com,work@timscamps.com"
311682468,University of Prince Edward Island,Other ,,CANADA,FORGN,https://www.upei.ca/,"admin@upeisu.ca,alumni@upei.ca,amfitzgerald@upei.ca,apply@upei.ca,artsadmin@upei.ca,avc@upei.ca,bookstore@upei.ca,brinklow@upei.ca,business@upei.ca,careerservices@upei.ca,cgallant@upei.ca,co-op@upei.ca,communications@upei.ca,conference@upei.ca,contracts@upei.ca,cpo@upei.ca,daeadmin@upei.ca,eap@upei.ca,elearning@upei.ca,equity@upei.ca,experientialed@upei.ca,fairtreatment@hratlantic.ca,financialservices@upei.ca,fmworkorders@upei.ca,fsdewedesign@upei.ca,healthcentre@upei.ca,helpdesk@upei.ca,hse@upei.ca,humanresource@upei.ca,ikeras@upei.ca,inte@upei.ca,jarod.cook@dexterra.com,jlgauthier@upei.ca,kohalloran@upei.ca,medicine@upei.ca,mratchford@upei.ca,nursing@upei.ca,ocii@upei.ca,ocuniah@upei.ca,office@upeifa.ca,panthercentral@upei.ca,pdp@upei.ca,president@upei.ca,president@upeifa.ca,procurement@upei.ca,reference@upei.ca,registrar@upei.ca,research@upei.ca,residence@upei.ca,rmoffat@upei.ca,science@upei.ca,security@upei.ca,studentaccounts@upei.ca,studentserv@upei.ca,studentsupport@upei.ca,studyabroad@upei.ca,sukidd@upei.ca,sv-pro@upei.ca,tlc@upei.ca,vicepresident@upeifa.ca,vpaf@upei.ca,vpar@upei.ca,web@upei.ca,ygong@upei.ca"
311719723,Human Concern International,Other ,,CANADA,FORGN,https://humanconcern.org/,info@humanconcern.org
311775386,Helen and Ernest Simmons Environmental Education Fund,Other ,,CANADA,"FORGN,PF",https://greenlearning.ca/blog,
311797488,International Foundation for Dharma Nature Time,Other ,,INDONESIA,FORGN,https://studioplesungan.org/undisclosed-territory,"info@studioplesungan.com,info@studioplesungan.org"
311799914,Michael Paul Wein Charitable Foundation Inc.,Other ,,MEXICO,"FORGN,SOUNK",https://www.instrumentl.com/990-report,
320201539,Faaopsd,Other ,,PHILIPPINES,FORGN,https://dfa.gov.ph/,
320570386,Kuwesa Network Group,Other ,,KENYA,FORGN,https://www.mnys.org/events,
320602538,Celtic Fc Foundation Inc.,Other ,,UNITED KINGDOM,FORGN,https://www.celticfc.com/,"%20matchdayhospitality@celticfc.co.uk,accessibleseating@celticfc.co.uk,alexis.dobbin@celticfc.co.uk,brandprotection@celticfc.co.uk,celticview@celticfc.co.uk,cfcfoundation@celticfc.co.uk,cjohnston@celticfc.co.uk,courses@celticfc.co.uk,dataprotection@celticfc.co.uk,events@celticfc.co.uk,hr@celticfc.co.uk,jptaylor@celticfc.co.uk,pcuddihy@celticfc.co.uk,pools@celticfc.co.uk,safeguarding@celticfc.co.uk,sign-for-celtic@2x.png,stadiumtours@celticfc.co.uk,store@celticfc.co.uk,tickets@celticfc.co.uk,travel.enquiries@celticfc.co.uk,u003Eaccessibleseating@celticfc.co.uk,u003Ealexis.dobbin@celticfc.co.uk,u003Ebrandprotection@celticfc.co.uk,u003Ecelticview@celticfc.co.uk,u003Ecfcfoundation@celticfc.co.uk,u003Ecourses@celticfc.co.uk,u003Edataprotection@celticfc.co.uk,u003Eevents@celticfc.co.uk,u003Ehr@celticfc.co.uk,u003Ejptaylor@celticfc.co.uk,u003Ematchdayhospitality@celticfc.co.uk,u003Epools@celticfc.co.uk,u003Esafeguarding@celticfc.co.uk,u003Estadiumtours@celticfc.co.uk,u003Estore@celticfc.co.uk,u003Etickets@celticfc.co.uk,u003Etravel.enquiries@celticfc.co.uk,u003Ewebhelp@celticfc.com,u003Eyhc@celticfc.co.uk,webhelp@celticfc.com,yhc@celticfc.co.uk"
320669498,Fashion Minority Alliance Incorporated,Other ,,UNITED KINGDOM,FORGN,https://www.fashionminorityalliance.com/,"accessibility@fashionminorityalliance.com,contact@fashionminorityalliance.com,press@fashionminorityalliance.com"
320724063,0g2030,Other ,,MONACO,FORGN,https://0g2030.org/,
330839449,San Bernardino County Sheriff Dept Central Reserve Unit 116,Other ,,AFGHANISTAN,FORGN,https://opengovus.com/tax-exempt,
331221293,Aprosam-Usa Inc.,Other ,,THE GAMBIA,"FORGN,PF",https://www.hipaaspace.com/ein,
352607002,Hope for Burkina Futures Inc.,Other ,,BURKINA FASO,FORGN,https://hopeforbf.org/,
352619387,International Nexus Institute Inc.,Other ,,NETHERLANDS,FORGN,https://nexusinstitute.net/,"Office@NEXUSInstitute.net,youremail@gmail.com"
352651768,Seed Systems Group Inc.,Other ,,KENYA,FORGN,https://seedsystemsgroup.org/,info@seedsystemsgroup.org
352725269,Science for Africa Foundation Sfa,Other ,,KENYA,FORGN,http://scienceforafrica.foundation/,
363231575,International Society for Dermatologic Surgery,Other ,,GERMANY,FORGN,https://isdsworld.com/,"info@JDDonline.com,info@isdsworld.com"
363387030,Westside Small Business Development Corporation,Other ,,AFGHANISTAN,FORGN,https://afghansmallbus.org/,"info@afghansmallbus.org,mir@afghansmallbus.org"
364747146,Odcem Inc.,Other ,,ITALY,FORGN,https://odcem.org/the-odcem-team.html,
364867900,Bright Future Education Foundation,Other ,,CHINA,"FORGN,PF",http://www.bfeducation.com/about.html,info@bfeducation.com
364891396,Fundacion Providencia USA,Other ,,MEXICO,FORGN,https://providencia.org.mx/,contacto@providencia.org.mx
371500159,Petersen Dental Health Foundation,Other ,,PORTUGAL,"FORGN,PF",https://www.instrumentl.com/990-report,
371518018,Westerly Band,Other ,,SERBIA,FORGN,https://westerlyband.org/,"president@westerlyband.org,westerlyband@yahoo.com,westeryband@yahoo.com"
371832493,Perfect World Foundation Inc.,Other ,,SWEDEN,FORGN,https://theperfectworld.com/,info@theperfectworld.com
371949603,Friends of Nassau Rowing Club Inc.,Other ,,THE BAHAMAS,FORGN,https://www.nassaurowingclub.com/,"NassauRowingClub@gmail.com,nassaurowingclub@gmail.com"
371965551,Friends of the Global Alliance of Ngos for Road Safety Inc.,Other ,,DENMARK,FORGN,http://www.roadsafetyngos.org/,"Ferrarowww.andrewferraro.comandrew@andrewferraro.com,admin@roadsafetyngos.org,deponti.marco@gmail.com"
371997271,Anne Innis Dagg Foundation Inc.,Other ,,CANADA,FORGN,https://anneinnisdaggfoundation.org/,user@domain.com
372039212,International Templar Academy Foundation,Other ,,ITALY,"FORGN,PF",https://itaf.academy/,
372153441,J D Irving Companies US Foundation Inc.,Other ,,CANADA,"FORGN,PF",https://www.jdirving.com/en,"address@example.com,someone@example.com"
383291259,Terralingua,Other ,,CANADA,FORGN,https://terralingua.org/,chosen-sprite@2x.png
383494291,Rukibai & Rijhumal Foundation,Other ,,INDIA,"FORGN,PF",https://fconline.foundationcenter.org/fdo-grantmaker-profile,
383938349,Friends of Bermuda Community Foundation,Other ,,BERMUDA,FORGN,https://bermudafoundation.org/ux-tax-payers,
384093041,Webale Inc.,Other ,,UGANDA,FORGN,http://webale.org/,
384226728,Pfs Network Incorporated,Other ,,AUSTRALIA,FORGN,https://www.healthdirect.gov.au/australian-health-services,
384233531,Fideicomiso Earth Foundation,Other ,,COSTA RICA,"FORGN,SO",https://www.earth.ac.cr/home,"info@earth-usa.org,uearth@earth.ac.cr,usuario@earth.ac.cr"
391834833,International Assoc for Scientific Study of Intellectual Disabilities,Other ,,AUSTRALIA,FORGN,https://iassidd.org/,"C.oliver@bham.ac.uk,Esther.Bakker-vanGijssel@radboudumc.nl,Fionn.CrombieAngus@dspg.uk,JZarcone@mayinstitute.org,Jenneken.Naaldenberg@radboudumc.nl,P.E.Langdon@kent.ac.uk,R.Hastings@warwick.ac.uk,Scott.Thompson@uregina.ca,a.buchanan@curtin.edu.au,a.hassiotis@ucl.ac.uk,alice.schippers@tiscali.nl,angela.henderson@glasgow.ac.uk,bea.maes@kuleuven.be,christine.linehan@ucd.ie,colleen.adnams@uct.ac.za,deirdre.corby@dcu.ie,eric.emerson@lancaster.ac.uk,ewelina.rydzewska@glasgow.ac.uk,fionnathan.productions@gmail.com,iapc2025.secretariat@moment.sg,ivan.brown@live.ca,ivan.brown@utoronto.ca,j.goldbart@mmu.ac.uk,jan.blacher@ucr.edu,jayneclapton@gmail.com,keith.mcvilly@unimelb.edu.au,kenneth.poon@nie.edu.sg,l.taggart@ulster.ac.uk,m.j.brown@qub.ac.uk,maganas@uic.edu,maunos.crom@ssss.gouv.qc.ca,mcclion@albany.edu,meaghan.edwards@ucalgary.ca,mindy.scheithauer@choa.org,mjanicki@uic.edu,mjgural@uw.edu,office@iassidd.org,past_president@iassidd.org,petra.bjorne@malmo.se,president@iassidd.org,r.faragher@uq.edu.au,r.hastings@warwick.ac.uk,ruth.northway@southwales.ac.uk,sdababnah@ssw.umaryland.edu,secretary@iassidd.org,theller@uic.edu,tobias.buchner@univie.ac.at,treasurer@iassidd.org,v.totsika@ucl.ac.uk,vp-africa@iassidd.org,vp-americas@iassidd.org,vp-europe@iassidd.org,ybolo002@ucr.edu"
412228451,Historic Dance Theater Foundation,Other ,,UNITED KINGDOM,FORGN,https://historicaldancechoreographers.com/,
421073614,Studio Arts College International Inc.,Other ,,ITALY,FORGN,https://saci-florence.edu/,
421540872,Christian Family Fellowship Foundation,Other ,,NIGERIA,FORGN,https://www.chrifacaf.org/,
431941428,Fusion Ministries Inc.,Other ,,NORWAY,FORGN,https://www.fusionmovement.org/norway,hello@fusionmovement.org
431996058,Pacific Salmon Conservation Foundation,Other ,,CANADA,FORGN,https://psf.ca/,"Proctor-Cam-018-4x5-@300-CL-NEW-3-824x1030.jpg,Proctor-Cam-018-4x5-@300-CL-NEW-3-845x684.jpg,Proctor-Cam-018-4x5-@300-CL-NEW-3-e1657311969898-180x180.jpg,Proctor-Cam-018-4x5-@300-CL-NEW-3-e1657311969898-191x200.jpg,Proctor-Cam-018-4x5-@300-CL-NEW-3-e1657311969898-287x300.jpg,Proctor-Cam-018-4x5-@300-CL-NEW-3-e1657311969898.jpg,president@psf.ca,salmon@psf.ca"
451769381,2237 Ministries,Other ,,SWEDEN,FORGN,https://www.government.se/contacts,
452715445,Virtual Magellan Inc.,Other ,,MEXICO,FORGN,https://www.virtualmagellan.com/,
453149641,Cleaner and Greener Endless Mountains Pa Inc.,Other ,,AFGHANISTAN,FORGN,https://www.cleanergreener.org/,bethechange@cleanergreener.org
453588477,Elife Sciences Publications Ltd.,Other ,,UNITED KINGDOM,FORGN,https://elifesciences.org/,"data@elifesciences.org,eLife-new-icon-only@2x.png,editorial@elifesciences.org,elife-logo-xs@1x.f9b97bde.png,f.hutton@elifesciences.org,hhmi@1x.739f96c8.png,hhmi@1x.7a33c14e.webp,hhmi@2x.1ad6ab6c.png,hhmi@2x.39287b22.webp,icon-600x600@1.52e87ee6.png,kaw@1x.aabae49d.webp,kaw@1x.d11d4f95.png,kaw@2x.dfb04de2.webp,kaw@2x.ee42bf3a.png,max@1x.71f18cc3.png,max@1x.893132ad.webp,max@2x.727ba110.png,max@2x.8503a434.webp,press@elifesciences.org,production@elifesciences.org,site-feedback@elifesciences.org,wellcome@1x.04660921.webp,wellcome@1x.b38198be.png,wellcome@2x.04433270.png,wellcome@2x.20f8e70c.webp"
454520090,Heavenly Grace Gospel Word Network,Other ,,AFGHANISTAN,FORGN,http://hggwnministries.org/,
454805585,New Generation Ministry of the Apostolic Faith Inc.,Other ,,ARMENIA,FORGN,https://ngngo.net/en,
455129655,Magic City Bicycle Collective,Other ,,NETHERLANDS,FORGN,https://www.miamiherald.com/news,
455214465,Jericho7 Arnaud Projects Inc.,Other ,,HAITI,FORGN,https://jericho7arnaudprojec.wixsite.com/japi,"605a7baede844d278b89dc95ae0a9123@sentry-next.wixpress.com,88170cb0c9d64f94b5821ca7fd2d55a4@sentry-next.wixpress.com,8c4075d5481d476e945486754f783364@sentry.io,8eb368c655b84e029ed79ad7a5c1718e@sentry.wixpress.com,9a65e97ebe8141fca0c4fd686f70996b@sentry.wixpress.com,JERICHO7ARNAUDPROJECTS@YAHOO.COM,JOSEPHBENJAMIN.3X4MINISTRIES@OUTLOOK.COM,Jericho7ArnaudProjects@yahoo.com"
455440099,Shamrock Fund of the Jack and Jill Childrens Foundation,Other ,,IRELAND,FORGN,https://www.jackandjill.ie/,"info@jackandjill.ie,info@jackandjill.ieRead"
460524899,Manchester Business School America Inc.,Other ,,UNITED KINGDOM,FORGN,https://www.alliancembs.manchester.ac.uk/,"ambs.hub@manchester.ac.uk,ambsconference@manchester.ac.uk,behaviouralresearchlab@manchester.ac.uk,datavisualisationobservatory@manchester.ac.uk,entrepreneurship@manchester.ac.uk,executive.education@manchester.ac.uk,global@manchester.ac.uk,hotel@manchester.ac.uk,hums.doctoralacademy@manchester.ac.uk,info.me@manchester.ac.uk,manchester.hyatthouse@hyatt.com,mba@manchester.ac.uk,mba@manchester.edu.hk,mbaenquiries@manchester.edu.sg,pg.ambs@manchester.ac.uk,pgadmissions.ambs@manchester.ac.uk,ug.ambs@manchester.ac.uk"
460525632,Garcia Family Foundation US,Other ,,UNITED KINGDOM,"FORGN,PF",https://garciafamilyfoundation.org/,contact@garciafamilyfoundation.org
460840870,New Covenant Temple Cultural Community Center,Other ,,AFGHANISTAN,FORGN,http://www.nct-ccc.com/index.html,
460931830,Sopar - Bala Vikasa Society USA,Other ,,CANADA,FORGN,https://sopar.ca/,"giselle@sopar.ca,shobha@sopar.ca,sopar@sopar.ca"
460948408,Building Baja S Future,Other ,,MEXICO,FORGN,https://buildingbajasfuture.org/en,info@buildingbajasfuture.org
461395444,Imaginenations Church USA Inc.,Other ,,AUSTRALIA,FORGN,https://inchurch.com.au/about,"SaferChurches@inchurch.com.au,info@inchurch.com.au,user@domain.com"
461423587,Unique Destiny,Other ,,AFGHANISTAN,FORGN,https://eintaxid.com/company,
461477159,Keren Ora Bagalil,Other ,,ISRAEL,FORGN,https://www.keren-or.org/,"18d2f96d279149989b95faf0a4b41882@sentry-next.wixpress.com,2062d0a4929b45348643784b5cb39c36@sentry.wixpress.com,271e9fa3230b4eec94b02bf95780f5f2@sentry.wixpress.com,2960adcdd7704551bff19823820fca44@sentry.wixpress.com,460ff4620fa44cba8df530afde949785@sentry.wixpress.com,5d1795a2db124a268f1e1bd88f503500@sentry.wixpress.com,605a7baede844d278b89dc95ae0a9123@sentry-next.wixpress.com,88170cb0c9d64f94b5821ca7fd2d55a4@sentry-next.wixpress.com,8c4075d5481d476e945486754f783364@sentry.io,8eb368c655b84e029ed79ad7a5c1718e@sentry.wixpress.com,9a65e97ebe8141fca0c4fd686f70996b@sentry.wixpress.com,c183baa23371454f99f417f6616b724d@sentry.wixpress.com,dd0a55ccb8124b9c9d938e3acf41f8aa@sentry.wixpress.com,ed436f5053144538958ad06a5005e99a@sentry.wixpress.com,info@keren-or.org,info@keren-or.org?subject=Contact Us,shira@kerenor.org.il,shira@kerenor.org.il?subject=Contact Us"
461793043,Teachers of the Nations,Other ,,SOUTH AFRICA,FORGN,https://www.changetheworldeducategirls.co.za/,melladavis_phd@yahoo.com
461835893,Friends of McDermott House Canada Inc.,Other ,,CANADA,FORGN,https://mcdermotthousecanada.org/,"jschnare@mcdermotthousecanada.org,swilsack@mcdermotthousecanada.org"
462728247,Consortium for Women Leaders in Public Service,Other ,,PERU,FORGN,https://cwlps.org/,contacto@cwlps.org
463009006,Healthcare Innovation Transfer,Other ,,NETHERLANDS,FORGN,https://www.healthinnovation.nl/,info@healthinnovation.nl
463137490,Nightingale Opera Theatre,Other ,,AUSTRALIA,FORGN,https://www.nightingaleperformingartsau.com/events,user@domain.com
463841478,Red Star United Caribbean Center Inc.,Other ,,HAITI,FORGN,https://bisprofiles.com/fl,
464203553,Triad Woodcarvers,Other ,,NEW CALEDONIA,FORGN,https://www.triadwoodcarvers.com/,"twc.webmaster00@gmail.com,twc.webmaster00@gmail.com?,user@domain.com"
464820643,Core Nigeria Inc.,Other ,,AFGHANISTAN,FORGN,https://core-af.org/,"core.afghanistan2@gmail.com,info@core-af.org"
465173508,Haitelmex Foundation Inc.,Other ,,MEXICO,FORGN,https://www.fondationhaitelmex.org/,"direction@fondationhaitelmex.org,virginia.ruecker@hotmail.com"
467176935,Pizar Foundation,Other ,,CANADA,"FORGN,PF",https://my.charitableimpact.com/charities,
470677877,International Chapel Ministries,Other ,,JAPAN,FORGN,https://www.nc4.org/project,"%20delaina.sirard@nc4.org,%20keren.lozada@nc4.org,Tavillia.Cox@NC4.org,arnold.l.rego@gmail.com,chad.wakeman@gmail.com,gardener24@ptd.net,gilesbaker@netacc.net,hmlvml62@ptd.net,hurricane5992@yahoo.com,ian.martin@nc4.org,info@nc4.org,lorraine.roberts@rcn.com,nance714@ptd.net,ncrego@ualr.edu,nestarrodriguez@yahoo.com,runneramw@gmail.com"
470738786,Maxwell Public School Scholarship Foundation,Other ,,AFGHANISTAN,FORGN,https://scholarships.af/,
471134584,Chanel Family Foundation,Other ,,PORTUGAL,"FORGN,PF",https://www.chanel.com/us,"email@gmail.com,name@gmail.com,name@mail.com"
471325326,Idc Inc. Americas,Other ,,AUSTRALIA,FORGN,https://www.idc.com/,"JP_Support@idc.com,askidc@idccanada.com,conferencesbenelux@idc.com,fhook@idc.com,glopez@idc.com,hnaqshbandi@idc.com,idc_support@idc.com,idclamarketing@idc.com,info@idc.dk,jbakk@idc.com,jlalchandani@idc.com,kildefonso@idc.com,kschmalen@idc.com,leads@idc.com,mheath@idc.com,mlazarescu@idc.com,mwalker@idc.com,nconic@idc.com,nelemary@idc.com,nordic.booking@idc.com,office.poland@idc.com,ohamitoglu@idc.com,privacy@idc.com,u003Eexample@yourdomain.com"
471756899,Center for Spiritual Care and Pastoral Formation,Other ,,AFGHANISTAN,FORGN,https://www.cscpf.org/,"CSCPF-Logistics@cscpf.org,CSCPF-Operations@cscpf.org,John@pacinstitute.org"
471845352,Breizh Amerika,Other ,,FRANCE,FORGN,https://www.breizh-amerika.com/,
472053956,Women Without Roofs,Other ,,UNITED KINGDOM,FORGN,https://wwrnepal.wordpress.com/about-us,"anna@wwr-nepal.org,info@wwr-nepal.org,support@wwr-nepal.org,trustees@wwr-nepal.org"
472259640,Pharmacists Preventing Suicides,Other ,,AFGHANISTAN,FORGN,https://pmc.ncbi.nlm.nih.gov/articles,
472497188,The Jonathan Toews Foundation,Other ,,CANADA,"FORGN,PF",https://www.canadahelps.org/en,"info@canadahelps.org,media@canadahelps.org"
473057366,Jamaica Christian Services USA Inc.,Other ,,JAMAICA,FORGN,https://www.jbseminary.com/index.html,
474050443,Opportunity Transforming Lives,Other ,,AFGHANISTAN,FORGN,https://www.passage.com/afghan-program,afghanprogram@passage.com
474192714,Laying Foundation Life Center,Other ,,GEORGIA,FORGN,https://www.georgiacompanyregistry.com/companies,
474634249,Uganda Essomero Chicago,Other ,,UGANDA,FORGN,https://www.ugandaessomero.com/,essomerochicago@gmail.com
474696882,Fbcd United Appeal Fund Inc.,Other ,,ALBANIA,FORGN,https://www.instrumentl.com/990-report,
474856091,Mbone International,Other ,,CAMEROON,FORGN,https://mboneinternational.com/,
475182079,Bentley Academy Charter School PTA,Other ,,AFGHANISTAN,FORGN,https://bentleyacademyptadotorg.wordpress.com/2015,"BentleyAcademyPTA@gmail.com,bentleyacademyPTA@gmail.com,halloweenparking@gmail.com"
475350413,San Joaquin County Fallen Peace Officer Foundation,Other ,,CANADA,FORGN,https://www.sjcfallenfoundation.org/,"605a7baede844d278b89dc95ae0a9123@sentry-next.wixpress.com,SJCOfallenMemorial@outlook.com,info@mysite.com"
481066294,Midamerica-Weary Scholarship Foundation Inc.,Other ,,AFGHANISTAN,FORGN,https://www.themidamericashow.com/weary,"alyssa@youraam.com,alyssa@youraam.com?"
481207050,Second Chance Homeless Pet Society,Other ,,AFGHANISTAN,FORGN,https://www.petfinder.com/member,
510262624,American Friends of the Natl Museum of Bermuda Inc.,Other ,,BERMUDA,FORGN,https://afnmb.org/,
521128190,National Shellfisheries Association,Other ,,CANADA,FORGN,https://www.shellfish.org/,
521182681,Lakefield College School Foundation American Inc.,Other ,,CANADA,"FORGN,PF",https://www.lcs.on.ca/support-lcs,"Admissions@lcs.on.ca,admissions@lcs.on.ca,jhorrigan@lcs.on.ca"
521325040,Friends of Wilfrid Laurier University Inc.,Other ,,CANADA,FORGN,https://www.wlu.ca/,"accessibility@wlu.ca,accessible_learning@wlu.ca,alumni@wlu.ca,annualgiving@wlu.ca,avpedi@wlu.ca,chooselaurier@wlu.ca,communications@wlu.ca,gradadmissions@wlu.ca,lburrows@wlu.ca,miltoninquiries@wlu.ca,support@mylaurier.ca"
521685933,American Chamber Foundation Philippines Inc.,Other ,,PHILIPPINES,FORGN,https://amchamphilippines.com/,"amcham.mindanao@gmail.com,amcham@amchamphilippines.com,annie@amchamphilippines.com,biscominc.makati@gmail.com,blp@amchamphilippines.com,brenda@amchamphilippines.com,buddy@amchamphilippines.com,cebuamcham@yahoo.com,celine@amchamphilippines.com,chet@amchamphilippines.com,dana@amchamphilippines.com,divina@amchamphilippines.com,donna@amchamphilippines.com,emman@amchamphilippines.com,ernie@amchamphilippines.com,isabelle@amchamphilippines.com,joan@amchamphilippines.com,krizza@amchamphilippines.com,leslie@amchamphilippines.com,lorish@amchamphilippines.com,mylene@amchamphilippines.com,nadine@amchamphilippines.com,patricia@amchamphilippines.com,rachel@amchamphilippines.com,renee@amchamphilippines.com,rick@amchamphilippines.com,rome@amchamphilippines.com,roy@amchamphilippines.com,ruthcel@amchamphilippines.com,vicky@amchamphilippines.com,vince@amchamphilippines.com,virna@amchamphilippines.com"
521892140,Society for Insulin-Like Growth Factor Research Inc.,Other ,,IRELAND,FORGN,https://igf-society.org/about-us,
521945379,Fondo Mexicano Para La Conservacion De La Naturaleza Ac,Other ,,MEXICO,FORGN,https://fmcn.org/,"denuncia@fmcn.org,info@fmcn.org"
541574776,Tdc Research Foundation,Other ,,CANADA,"FORGN,PF",https://tdcf.ca/en,"director@tdcf.ca,director@tdcf.ca?subject:%20please%20tell%20me%20more"
550873927,Hope Waddell Old Students Association North America,Other ,,NIGERIA,FORGN,https://dailytrust.com/119-exciting-years-of-hope-waddell,dtonline@dailytrust.com
561978798,Organization of Christian Ministries Inc.,Other ,,KENYA,FORGN,http://www.ocmministries.org/,"hannahwanjiru24@yahoo.com,info@ocmministries.org,info@ocmministries.org?subject=inquiry,nfo@ocmministries.org,victoryword2002@yahoo.com"
562162135,Tri Beach Cruisers Inc.,Other ,,NEW CALEDONIA,FORGN,https://www.tribeachcruisers.com/,
562453653,International Council on Womens Health Issues,Other ,,AUSTRALIA,FORGN,https://icowhi.org/,
570694390,Jesus Saves Mission USA Inc.,Other ,,SINGAPORE,FORGN,https://jsm-sg.com/,jsmsi@singnet.com.sg
570971160,Christian Contractors Association Inc.,Other ,,ANDORRA,FORGN,https://www.christiancontractorsassociation.com/,
582025963,Scouts on Stamps Society International Inc.,Other ,,CANADA,FORGN,https://sossi.org/index.shtml,
582270305,Spirit of Truth Disciplining Ministries Inc.,Other ,,AFGHANISTAN,FORGN,https://www.georgiacompanyregistry.com/companies,
611474441,Concerned Women Inc.,Other ,,GEORGIA,FORGN,https://concernedwomeninc.com/home.html,"asan137659@aol.com,emaildemo@hostopia.com"
611559485,Dreams Do Come True Community Empowerment Center Inc.,Other ,,UNITED KINGDOM,FORGN,https://eintaxid.com/company,
611600780,World Childrens Prize for the Rights of the Child USA,Other ,,SWEDEN,FORGN,https://worldschildrensprize.org/,
611889562,Villages of Hope Africa Society,Other ,,CANADA,FORGN,https://vohafrica.com/,
611988490,Kinvest Impact Foundation,Other ,,CANADA,FORGN,https://kinvestimpact.com/,hello@kinvestimpact.com
611991705,Top 10 Foundation Inc.,Other ,,DOMINICAN REPUBLIC,FORGN,https://top10foundation.com/index-en.html,
650524235,Arise & Shine Evangelistic Association Inc.,Other ,,SOUTH AFRICA,FORGN,https://arise-shine.org/our-ministries,
651257126,Praisegate International Ministries,Other ,,SWEDEN,FORGN,https://www.praisegate.com/about.php,info@praisegate.com
660555246,We From Upstreet Inc.,Other ,,BRITISH VIRGIN ISLANDS,FORGN,https://stthomassource.com/content,"advertising@visource.com,ananta.pancham@visource.com,editor@visource.com,kelsey@visource.com,kingofthewingvi@gmail.com,legals@visource.com,leia.laplace@dpnr.vi.gov,michele.weichman@visource.com,visource@gmail.com,visourceart@gmail.com"
660581471,St. John Historical Society Inc.,Other ,,BRITISH VIRGIN ISLANDS,FORGN,https://stjohnhistoricalsociety.org/,"72fefd10-ba5b-4866-a62f-36be6b4119fd@icloud.com,contactus@stjohnhistoricalsociety.org"
660627809,Virgin Islands Judo Federation,Other ,,BRITISH VIRGIN ISLANDS,FORGN,https://www.virginislandsolympics.org/team,
660669513,Crusaders Fraternity Inc.,Other ,,BRITISH VIRGIN ISLANDS,FORGN,https://www.cybo.com/VI-biz,
660671488,Micronesian Shark Foundation,Other ,,PORTUGAL,FORGN,http://msfpalau.org/,
660775068,General Council of the Assemblies of God in American Samoa,Other ,,AMERICAN SAMOA,FORGN,https://assembliesofgodinsamoa.org/,info.aoginsamoa@gmail.com
660789403,Academia Medica Del Sur - Fondo Educacion Medica Continuada Inc.,Other ,,PUERTO RICO,"FORGN,POF",https://www.academiamedicadelsur.com/,"0e6a29e4756740a8a63493e912ba2174@sentry.wixpress.com,460ff4620fa44cba8df530afde949785@sentry.wixpress.com,605a7baede844d278b89dc95ae0a9123@sentry-next.wixpress.com,8c4075d5481d476e945486754f783364@sentry.io,8eb368c655b84e029ed79ad7a5c1718e@sentry.wixpress.com,98b21aa53d68482b8414e892d9af0e5f@sentry-next.wixpress.com,9a65e97ebe8141fca0c4fd686f70996b@sentry.wixpress.com,Info@academiamedicadelsur.com,baf30a2b91654c5a840931f0137bed30@sentry.wixpress.com,c183baa23371454f99f417f6616b724d@sentry.wixpress.com,dd0a55ccb8124b9c9d938e3acf41f8aa@sentry.wixpress.com"
660837144,Guam Meditation Inc.,Other ,,GUAM,FORGN,https://gbhwc.guam.gov/mindfulness,"care@gbhwc.guam.gov,care@gbhwc.guam.gov?subject=Contact%20from%20GBHWC%20Website,directors.office@gbhwc.guam.gov"
660883778,Virgin Islands Good Food Coalition,Other ,,VIRGIN ISLANDS US,FORGN,https://www.goodfoodvi.org/,"2062d0a4929b45348643784b5cb39c36@sentry.wixpress.com,605a7baede844d278b89dc95ae0a9123@sentry-next.wixpress.com,8eb368c655b84e029ed79ad7a5c1718e@sentry.wixpress.com,info@goodfoodvi.org"
660886172,Continuing Medical Institute Inc.,Other ,,BRITISH VIRGIN ISLANDS,FORGN,https://viqio.org/,
660906428,Assembly of God Guam General Council,Other ,,GUAM,FORGN,https://ag.org/en,
660932407,Fondo Becas Estudiantiles Inc.,Other ,,CANADA,FORGN,https://www.educanada.ca/scholarships-bourses,
660933288,Rio De Vida Internacional,Other ,,PUERTO RICO,FORGN,https://rcp.estado.pr.gov/en,
660950342,Cruzan Dance Company Incorporated,Other ,,BRITISH VIRGIN ISLANDS,FORGN,https://coldwellbankervi.com/2023,info@coldwellbankervi.com
660964212,T-Project,Other ,,MAURITIUS,FORGN,https://www.telecom.mu/our-company,
660997395,Pentecostal Missionary Church of Christ 4th Watch,Other ,,GUAM,FORGN,https://pmcc4thwatch.org/,
661014632,Nirvana Health Foundation Group,Other ,,PUERTO RICO,FORGN,https://www.nirvanahealth.com/,
661026222,Omega Psi Phi Fraternity Inc. Eta Iota Iota Chapter,Other ,,BRITISH VIRGIN ISLANDS,FORGN,https://hii.clubexpress.com/,
661030323,Engineers Without Borders Pr,Other ,,PUERTO RICO,FORGN,https://ewbuwpuertorico.weebly.com/,
661033592,Eternity Life Residence Corporation,Other ,,PUERTO RICO,"FORGN,PF",https://rcp.estado.pr.gov/en,
661053093,Centro Cristiano Faro De Esperanza,Other ,,PUERTO RICO,FORGN,https://www.ccfarodeesperanza.com/nuestro-pastor,"605a7baede844d278b89dc95ae0a9123@sentry-next.wixpress.com,88170cb0c9d64f94b5821ca7fd2d55a4@sentry-next.wixpress.com,8eb368c655b84e029ed79ad7a5c1718e@sentry.wixpress.com,CCFARODESESPERANZA@GMAIL.COM,ccfarodeesperanza@gmail.com"
661055967,Animalis Foundation Llc,Other ,,PUERTO RICO,FORGN,https://rcp.estado.pr.gov/en,
661060285,Juventud Unida Por La Necesidad Transformacion Y Equidad Social in,Other ,,PUERTO RICO,FORGN,https://www.bizapedia.com/pr,
661063611,Jed Educational Health Support Group,Other ,,PUERTO RICO,FORGN,https://jedfoundation.org/,media@jedfoundation.org
661065612,People Who Smile Corporation,Other ,,PUERTO RICO,"FORGN,POF",https://opencorporates.com/companies,
661067423,Miracles Now Foundation Group Inc.,Other ,,PUERTO RICO,FORGN,https://rcp.estado.pr.gov/en,
661067425,The Good News Foundation Group Inc.,Other ,,PUERTO RICO,FORGN,https://www.thegnfoundation.org/post,
661067435,Centro Comunitario De Integracion Familiar Inc.,Other ,,PUERTO RICO,FORGN,https://www.aspripr.org/programas,accionsocialdepr@aspripr.org
661071673,Proyecto Restauracion Familiar Inc.,Other ,,PUERTO RICO,FORGN,https://www.addiction-programs.net/directory,
661071676,Phes Browsing Foundation Inc.,Other ,,PUERTO RICO,FORGN,https://rcp.estado.pr.gov/en,
661076284,Fundacion Para La Restauracion Jesus Es El Camino Inc.,Other ,,PUERTO RICO,FORGN,https://opencorporates.com/companies,
661076910,Undercover Leadership Inc.,Other ,,BARCELONETA,FORGN,https://opencorporates.com/companies,
661080769,Bizops Foundation Corp,Other ,,PUERTO RICO,FORGN,https://rcp.estado.pr.gov/en,
680517066,Western States Chapter 10 173d Airborne Brigade Association,Other ,,CANADA,"EO,FORGN",https://www.skysoldier.net/,"046c982186afa15dc9513490293d26b1@o37417.ingest.sentry.io,18d2f96d279149989b95faf0a4b41882@sentry-next.wixpress.com,271e9fa3230b4eec94b02bf95780f5f2@sentry.wixpress.com,460ff4620fa44cba8df530afde949785@sentry.wixpress.com,5d1795a2db124a268f1e1bd88f503500@sentry.wixpress.com,605a7baede844d278b89dc95ae0a9123@sentry-next.wixpress.com,78f7996315bc402f9dcb8a2f974b82d1@sentry.wixpress.com,88170cb0c9d64f94b5821ca7fd2d55a4@sentry-next.wixpress.com,8c4075d5481d476e945486754f783364@sentry.io,9a65e97ebe8141fca0c4fd686f70996b@sentry.wixpress.com,c183baa23371454f99f417f6616b724d@sentry.wixpress.com,dd0a55ccb8124b9c9d938e3acf41f8aa@sentry.wixpress.com,ed436f5053144538958ad06a5005e99a@sentry.wixpress.com,f36cc48fb72b4d298c835f2793cf3b84@sentry-next.wixpress.com,f_marcantonio@yahoo.com"
721571034,Congregation Hamerkaz Inc.,Other ,,ISRAEL,FORGN,https://nefeshhatalmid.com/donate,"alterklein@gmail.com,arideutscher@gmail.com,arigreenis@gmail.com,briskisrael@gmail.com,info@webuilder.us,yehuda.silver@gmail.com"
731068830,New Chaucer Society,Other ,,ICELAND,FORGN,https://newchaucersociety.org/,
742969176,Grateful Paws,Other ,,AFGHANISTAN,FORGN,https://www.kabulsmallanimalrescue.com/,"2062d0a4929b45348643784b5cb39c36@sentry.wixpress.com,271e9fa3230b4eec94b02bf95780f5f2@sentry.wixpress.com,460ff4620fa44cba8df530afde949785@sentry.wixpress.com,605a7baede844d278b89dc95ae0a9123@sentry-next.wixpress.com,8eb368c655b84e029ed79ad7a5c1718e@sentry.wixpress.com,ed436f5053144538958ad06a5005e99a@sentry.wixpress.com,hello@kabulsmallanimalrescue.com,hello@kabulsmallanimalrescue.com?subject=Website Visitor Inquiry"
752657265,Without Walls Church of Fort Worth Inc.,Other ,,CANADA,FORGN,https://church-without-walls.ca/,rev.ed.onlineministry@gmail.com
753014680,Keg Spirit Foundation,Other ,,CANADA,"FORGN,PF",https://thekeg.com/en,"Franchising@kegrestaurants.com,Legal@kegrestaurants.com,Marketing@kegrestaurants.com,abbotsford@kegrestaurants.com,accessibility@kegrestaurants.com,ajax@kegrestaurants.com,alberni@kegrestaurants.com,aoda@kegrestaurants.com,arlington@kegrestaurants.com,aurora@kegrestaurants.com,banffcaribou@kegrestaurants.com,banffdowntown@kegrestaurants.com,barrie@kegrestaurants.com,birthdayprogram@kegrestaurants.com,bobby.price@kegrestaurants.com,bramalea@kegrestaurants.com,brampton@kegrestaurants.com,brandon@kegrestaurants.com,brantford@kegrestaurants.com,brighton@kegrestaurants.com,burlington@kegrestaurants.com,burnaby@kegrestaurants.com,bustere@kegrestaurants.com,calgary4thave@kegrestaurants.com,cambridge@kegrestaurants.com,cameron.powley@kegrestaurants.com,carolynt@kegrestaurants.com,centrecrossing@kegrestaurants.com,chandler@kegrestaurants.com,coloradomills@kegrestaurants.com,consommateur@st-hubert.com,coquitlam@kegrestaurants.com,crowfoot@kegrestaurants.com,dartmouth@kegrestaurants.com,desertridge@kegrestaurants.com,devonshire@kegrestaurants.com,dixonroad@kegrestaurants.com,dunsmuir@kegrestaurants.com,embassykeg@fallsviewgroup.com,employment@kegrestaurants.com,esplanade@kegrestaurants.com,estatedrive@kegrestaurants.com,fortmcmurray@kegrestaurants.com,fortstreet@kegrestaurants.com,franchising@kegrestaurants.com,garrystreet@kegrestaurants.com,gcroteau75@hotmail.com,gi@kegrestaurants.com,giftcard@kegrestaurants.com,gilbert@kegrestaurants.com,glenno@kegrestaurants.com,grandeprairie@kegrestaurants.com,guelph@kegrestaurants.com,guestrelations@kegrestaurants.com,halifax@kegrestaurants.com,hamiltonmountain@kegrestaurants.com,hazel.goh@kegrestaurants.com,heartland@kegrestaurants.com,humanresources@kegrestaurants.com,huntclub@kegrestaurants.com,investorrelations@kegrestaurants.com,investorrelatons@kegrestaurants.com,jason.butler@kegrestaurants.com,jenn.anthony@kegrestaurants.com,jeroen.vanderwolf@kegrestaurants.com,jimmy.dudomaine@kegrestaurants.com,josh.bishop@kegrestaurants.com,kanata@kegrestaurants.com,keg@n21inc.com,kelowna@kegrestaurants.com,kevin.major@kegrestaurants.com,kingston@kegrestaurants.com,kingwest@kegrestaurants.com,langley@kegrestaurants.com,laval@kegrestaurants.com,lee.terreberry@kegrestaurants.com,legal@kegrestaurants.com,lesliestreet@kegrestaurants.com,lethbridge@kegrestaurants.com,londonsouth@kegrestaurants.com,lynnwood@kegrestaurants.com,mactrail@kegrestaurants.com,manor@kegrestaurants.com,mansion@kegrestaurants.com,mapleridge@kegrestaurants.com,marketing@kegrestaurants.com,marketmall@kegrestaurants.com,masonville@kegrestaurants.com,matt.murphy@kegrestaurants.com,medicinehat@kegrestaurants.com,michael.callihoo@kegrestaurants.ca,mississauga.north@kegrestaurants.com,moncton@kegrestaurants.com,morgancreek@kegrestaurants.com,newmarket@kegrestaurants.com,northyork@kegrestaurants.com,oakville@kegrestaurants.com,orovalley@kegrestaurants.com,oshawa@kegrestaurants.com,ottawa@kegrestaurants.com,parkroyal@kegrestaurants.com,parry.tascona@kegrestaurants.com,peterborough@kegrestaurants.com,pointeclaire@kegrestaurants.com,princegeorge@kegrestaurants.com,privacy.officer@kegrestaurants.com,pvm@kegrestaurants.com,reddeer@kegrestaurants.com,reginasouth@kegrestaurants.com,richmondhill@kegrestaurants.com,richmondsouth@kegrestaurants.com,riverside@kegrestaurants.com,saanich@kegrestaurants.com,saintbruno@kegrestaurants.com,scott.stephen@kegrestaurants.com,scottroad@kegrestaurants.com,shawnc@kegrestaurants.com,sherway@kegrestaurants.com,sherwoodpark@kegrestaurants.com,signalhill@kegrestaurants.com,skyview@kegrestaurants.com,southcommon@kegrestaurants.com,southpointe@kegrestaurants.com,southside@kegrestaurants.com,squareone@kegrestaurants.com,st.johns@kegrestaurants.com,stcatharines@kegrestaurants.com,stjames@kegrestaurants.com,sudbury@kegrestaurants.com,tempe@kegrestaurants.com,thekeg@kegrestaurants.com,thunderbay@kegrestaurants.com,troyan.mason@kegrestaurants.com,vaughan@kegrestaurants.com,vieux.montreal@kegrestaurants.com,waterdown@kegrestaurants.com,waterloo@kegrestaurants.com,westedmonton@kegrestaurants.com,whistler@kegrestaurants.com,whistlergroups@kegrestaurants.com,windermere@kegrestaurants.com,woodbridge@kegrestaurants.com,yaletown@kegrestaurants.com,yonge.eglinton@kegrestaurants.com,yorkstreet@kegrestaurants.com"
753097144,Delta Environmental & Education Foundation,Other ,,CHINA,"FORGN,PF",https://www.deefund.org/,
753255585,International Society for the Psychological Treatments of the,Other ,,GREECE,FORGN,https://isps.org/,"Cecilie.Brovig.Almas@sshf.no,Debra.L@xtra.co.nz,N.Nowack@zsp-salzwedel.de,alfredgillham@yahoo.com,dsoderstrom@bluewin.ch,empathywithcarers@yahoo.co.uk,isps@isps.org,julie_kipp@me.com,ludi.vanbouwel@skynet.be,margreet.depater@ziggo.nl,paradox@paradox.es"
770671951,A Gathering of Eagles Inc.,Other ,,GEORGIA,FORGN,https://ecorp.sos.ga.gov/BusinessSearch,
770680341,Finish Line Focused Ministries Inc.,Other ,,GEORGIA,FORGN,https://nonprofitlocator.org/organizations,
800437397,Restoration Hall Inc.,Other ,,ALBANIA,FORGN,https://rh.com/us,
800461717,Scott L Hull Memorial Fund,Other ,,AFGHANISTAN,FORGN,https://www.gofundme.com/s,"ldeleon@gofundme.com,lgarner+118@gofundme.com,privacy-requests@gofundme.com"
800506012,Youth Challenge America Inc.,Other ,,CANADA,FORGN,https://www.canadayouthchallenge.com/,
810877801,Queens Road Foundation Inc.,Other ,,HONG KONG,"FORGN,PF",https://www.instrumentl.com/990-report,
810992433,Exalted Ministries Inc.,Other ,,GUINEA-BISSAU,FORGN,https://eintaxid.com/company,
811663061,Life Beyond Re-Entry,Other ,,AFGHANISTAN,FORGN,https://playlifebeyond.com/,
811664389,Monkey Farm Inc.,Other ,,COSTA RICA,FORGN,https://www.themonkeyfarm.org/,"Info@themonkeyfarm.org,info@themonkeyfarm.org"
812411925,Law Help Center Inc.,Other ,,AFGHANISTAN,FORGN,https://help.unhcr.org/afghanistan,afgkaprt@unhcr.org
812870019,Robin Li & Melissa Ma Foundation,Other ,,CHINA,"FORGN,PF",https://newsen.pku.edu.cn/news_events,
813862980,Woodland Creek at Mrc the Crossings Residents Association,Other ,,TURKMENISTAN,FORGN,https://www.tx-hoa.net/txhoa_list.php,
814087832,You and US for Mantas Children Inc.,Other ,,ECUADOR,FORGN,https://www.youandusformantaschildren.org/,"605a7baede844d278b89dc95ae0a9123@sentry-next.wixpress.com,78f7996315bc402f9dcb8a2f974b82d1@sentry.wixpress.com,88170cb0c9d64f94b5821ca7fd2d55a4@sentry-next.wixpress.com,9a65e97ebe8141fca0c4fd686f70996b@sentry.wixpress.com,susanpaz_2000@yahoo.com,susanpaz_2000@yahoo.com?subject=About%20You%20%26%20Us!,susanpaz_2000@yahoo.com?subject=Sponsoring You & Us- I want to learn more!,susanpaz_2000@yahoo.com?subject=You%20%26%20Us!"
814479722,Africa Leads,Other ,,SENEGAL,FORGN,https://www.africaleadftf.org/,
814523817,International Union Educational League Inc.,Other ,,MEXICO,FORGN,https://www.ei-ie.org/,
814536840,Cdh Education Inc.,Other ,,AFGHANISTAN,FORGN,https://www.cdheducationinc.org/,"1eeb89147c984dc6bc3ffafd9e6cd089@sentry.wixpress.com,2062d0a4929b45348643784b5cb39c36@sentry.wixpress.com,271e9fa3230b4eec94b02bf95780f5f2@sentry.wixpress.com,460ff4620fa44cba8df530afde949785@sentry.wixpress.com,605a7baede844d278b89dc95ae0a9123@sentry-next.wixpress.com,8c4075d5481d476e945486754f783364@sentry.io,8eb368c655b84e029ed79ad7a5c1718e@sentry.wixpress.com,98b21aa53d68482b8414e892d9af0e5f@sentry-next.wixpress.com,9a65e97ebe8141fca0c4fd686f70996b@sentry.wixpress.com,c183baa23371454f99f417f6616b724d@sentry.wixpress.com,dd0a55ccb8124b9c9d938e3acf41f8aa@sentry.wixpress.com,ed436f5053144538958ad06a5005e99a@sentry.wixpress.com,info@cdheducationinc.org,info@cdhsoftskillsschool.com"
814672036,National Resource Specialists Organization Inc.,Other ,,GEORGIA,FORGN,https://georgia.gov/state-organizations,
814673583,Heirborn Servants Inc.,Other ,,ALBANIA,FORGN,https://www.heirbornservants.com/,
814738595,General Service Districts 12 and 13,Other ,,AFGHANISTAN,FORGN,https://moi.gov.af/en,"info@moi.gov.af,support.nc@moi.gov.af"
815176166,Lc Paws Inc.,Other ,,THE GAMBIA,FORGN,https://bestfriends.org/partners,"BFnetwork@bestfriends.org,advertising@bestfriends.org,alinah@bestfriends.org,angelsrest@bestfriends.org,bestfriendsla@bestfriends.org,catadoptions@bestfriends.org,conferences@bestfriends.org,contacthouston@bestfriends.org,contactnwa@bestfriends.org,contactnyc@bestfriends.org,corporaterelations@bestfriends.org,dogadoptions@bestfriends.org,donations@bestfriends.org,editor@bestfriends.org,events@bestfriends.org,guardianangel@bestfriends.org,horses@bestfriends.org,houstonvolunteer@bestfriends.org,info@bestfriends.org,informacion@bestfriends.org,internships@bestfriends.org,jobs@bestfriends.org,lodging@bestfriends.org,mailings@bestfriends.org,nationalvolunteers@bestfriends.org,parrots@bestfriends.org,pigs@bestfriends.org,plannedgiving@bestfriends.org,puppymillinitiatives@bestfriends.org,rabbits@bestfriends.org,utahadoptions@bestfriends.org,utahvolunteers@bestfriends.org,volunteerLA@bestfriends.org,volunteerNYC@bestfriends.org,volunteernwa@bestfriends.org,volunteers@bestfriends.org,welcomecenter@bestfriends.org,wild@bestfriends.org"
821150972,Parkings Under Green,Other ,,CHINA,FORGN,https://www.parking-mobility.org/news,"Faillace@parking-mobility.org,adam.calland@parkopedia.com,booth@parking-mobility.org,campbell@parking-mobility.org,carey@parking-mobility.org,chosen-sprite@2x.png,conference@parking-mobility.org,editor@parking-mobility.org,events@parking-mobility.org,federici@parking-mobility.org,haley.haas@easypark.net,jaltman@parking-mobility.org,media@justpark.com,membership@parking-mobility.org,pagan@parking-mobility.org,perkins@parking-mobility.org,rysak@parking-mobility.org,s.conrad@parking-mobility.org,sales@parking-mobility.org,scrimalli@parking-mobility.org,taltman@parking-mobility.org,yoka@parking-mobility.org"
821413746,In Community Inc.,Other ,,UGANDA,FORGN,https://www.incommunity501c.org/,"2062d0a4929b45348643784b5cb39c36@sentry.wixpress.com,605a7baede844d278b89dc95ae0a9123@sentry-next.wixpress.com,8eb368c655b84e029ed79ad7a5c1718e@sentry.wixpress.com,incommunity501c@gmail.com"
821610143,African Public Health Organization,Other ,,CAMEROON,FORGN,https://www.afro.who.int/,
821660573,Meorot Hachesed Inc.,Other ,,ISRAEL,FORGN,https://gomeorot.com/,info@gomeorot.com
821766805,Benevolent Community Health Services and Womens Social Club Co,Other ,,CAMEROON,FORGN,https://cmwabamenda.org/,"cammedwomass@yahoo.com,cammedwommas@yahoo.com"
821934687,Nancy Foundation Tanzania Corp,Other ,,TANZANIA,FORGN,https://www.nancyfoundationtanzaniacorp.com/,"2062d0a4929b45348643784b5cb39c36@sentry.wixpress.com,605a7baede844d278b89dc95ae0a9123@sentry-next.wixpress.com,8eb368c655b84e029ed79ad7a5c1718e@sentry.wixpress.com,nancyfoundationtz@gmail.com"
822363394,Suubi Community Development Organization Inc.,Other ,,UGANDA,FORGN,https://scpuganda.org/,
822677773,Shepower Leadership Academy,Other ,,PAKISTAN,FORGN,https://www.shepoweracademy.org/,"0fd2930120484402ac9adfb9e05cacd5@o37417.ingest.sentry.io,18d2f96d279149989b95faf0a4b41882@sentry-next.wixpress.com,5d1795a2db124a268f1e1bd88f503500@sentry.wixpress.com,605a7baede844d278b89dc95ae0a9123@sentry-next.wixpress.com,78f7996315bc402f9dcb8a2f974b82d1@sentry.wixpress.com,88170cb0c9d64f94b5821ca7fd2d55a4@sentry-next.wixpress.com,8c4075d5481d476e945486754f783364@sentry.io,8eb368c655b84e029ed79ad7a5c1718e@sentry.wixpress.com,9a65e97ebe8141fca0c4fd686f70996b@sentry.wixpress.com,9b2d036865304345b559aff283cf26f3@sentry.wixpress.com,JrShePower@gmail.co,JrShePower@gmail.co?subject=Media Inquiry,JrShePower@gmail.com,JrShePower@gmail.com?subject=Message From Website,JrShepower@gmail.com,arleanawaller@gmail.com,arleanawaller@gmail.com?subject=Email From ShePower Academy website,c183baa23371454f99f417f6616b724d@sentry.wixpress.com,dd0a55ccb8124b9c9d938e3acf41f8aa@sentry.wixpress.com,example@mysite.com"
822786138,Spc Arsenio Ugalde II Memorial Scholarship,Other ,,AFGHANISTAN,FORGN,https://www.datanyze.com/companies,
823264994,Jabez Projects Inc.,Other ,,GHANA,FORGN,https://jabezprojects.org/,"Brass@jabezprojects.org,support@jabezprojects.org"
823269347,Junior Husky Basketball Club Inc.,Other ,,AFGHANISTAN,FORGN,https://www.allbiz.com/business,
823414992,Kings Singers Global Foundation,Other ,,CANADA,FORGN,https://www.kingssingers.com/about,
824031969,Rejenga,Other ,,AFGHANISTAN,FORGN,https://www.rejenga.org/,"605a7baede844d278b89dc95ae0a9123@sentry-next.wixpress.com,8c4075d5481d476e945486754f783364@sentry.io,ReJengaorganization@gmail.com"
824215683,USA Minderoo Inc.,Other ,,AUSTRALIA,FORGN,https://www.minderoo.org/,
824289616,Loud Cry Media,Other ,,CANADA,FORGN,https://loudcrymedia.com/,"admin@loudcrymedia.com,ana@loudcrymedia.com,crystal@loudcrymedia.com,glen@loudcrymedia.com,info@loudcrymedia.com,julieannburks@gmail.com,liz@loudcrymedia.com,loudcryradio@aol.com"
830464319,Foundation of Integrated Development Inc.,Other ,,DEM REP OF CONGO,FORGN,https://emilioincongo.com/2022,
830653322,Bibevski Foundation,Other ,,MACEDONIA,FORGN,https://bibevskifoundation.org/,
831085145,Pss-College Bound,Other ,,CAMEROON,FORGN,https://www.pss-collegebound.org/,"info@pss-collegebound.org,ruby.moraida@pss-collegebound.org,user@domain.com"
831209740,Beautiful Closet Incorporated,Other ,,GEORGIA,FORGN,https://start.cortera.com/company,
831375177,Spirit of Wellness,Other ,,ECUADOR,FORGN,https://spiritofwellness.org/,"filler@godaddy.com,micah@micahrich.com,support@spiritofwellness.org"
831654968,Friends of Cross Lake,Other ,,AFGHANISTAN,FORGN,https://www.friendsofcrosslake.org/,"046c982186afa15dc9513490293d26b1@o37417.ingest.sentry.io,2062d0a4929b45348643784b5cb39c36@sentry.wixpress.com,271e9fa3230b4eec94b02bf95780f5f2@sentry.wixpress.com,460ff4620fa44cba8df530afde949785@sentry.wixpress.com,605a7baede844d278b89dc95ae0a9123@sentry-next.wixpress.com,78f7996315bc402f9dcb8a2f974b82d1@sentry.wixpress.com,88170cb0c9d64f94b5821ca7fd2d55a4@sentry-next.wixpress.com,8c4075d5481d476e945486754f783364@sentry.io,8eb368c655b84e029ed79ad7a5c1718e@sentry.wixpress.com,9a65e97ebe8141fca0c4fd686f70996b@sentry.wixpress.com,countyee@fairpoint.net,ed436f5053144538958ad06a5005e99a@sentry.wixpress.com"
831916182,VFW District III Europe,Other ,,GERMANY,FORGN,https://www.vfw.org/media-and-events,"example@domain.com,qmgeneral@vfw.org,qmgeneral@vfw.org?subject=VFW Logo Authorization Inquiry,qmgeneral@vfw.org?subject=VFW Logo Authorization Request,vfwfundraising@vfw.org,vfwfundraising@vfw.org?subject=Donor Request"
832495697,Frg Ministry International Inc.,Other ,,AUSTRALIA,FORGN,https://www.iconministry.com/,user@domain.com
832756405,Kinyan Fund Inc.,Other ,,ISRAEL,FORGN,https://www.instrumentl.com/990-report,
832957488,Virgin Bride of Christ Ministries Inc.,Other ,,GEORGIA,FORGN,https://eintaxid.com/company,
833637221,Pine Hills Partnership,Other ,,AFGHANISTAN,FORGN,https://www.state.gov/office-of-global-partnerships-partnerships-for-afghan-response,"Adoption@state.gov,AfghanPartnerships@state.gov,DHSImpact@hq.dhs.gov,NPIC@state.gov"
842470675,Roy & Mamie Elliott Foundation,Other ,,AFGHANISTAN,FORGN,https://www.scribd.com/document,"21588782029b459685064c03453673ff@sentry.io,bizdev@scribd.com,copyright@scribd.com,hello@scribd.com,help@scribd.com,press@scribd.com,progressive_profile_modal_rebrand_graphic@2x.1e30e486.png"
842932410,Harlingen Cardinal Youth Sports,Other ,,CAMEROON,FORGN,https://www.harlingenyouthsports.com/,
843015400,Omalley Family Charitable Foundation,Other ,,TAIWAN,"FORGN,PF",https://opengovus.com/tax-exempt,
843794050,New Mexico Association of Emergency Management Professionals,Other ,,AFGHANISTAN,FORGN,https://nmaemp.org/,
843948782,Togive Foundation,Other ,,INDIA,FORGN,https://www.giveindia.org/,
844574620,Psi Kyiv Inc.,Other ,,UKRAINE,FORGN,https://enrol.psi.kyiv.ua/,"info@psi.kyiv.ua,logo@2x.png,nikitav@psi.kyiv.ua"
845170733,Foundation for St. Elmo Grillerz,Other ,,TONGA,FORGN,https://fconline.foundationcenter.org/fdo-grantmaker-profile,
850954995,Indeed Community Solutions of Mississippi,Other ,,AFGHANISTAN,FORGN,https://www.indeed.com/,
851010744,Ujima Tribe,Other ,,GEORGIA,FORGN,https://ujimatribe.net/,"filler@godaddy.com,impallari@gmail.com,info@ujimatribe.net,info@ujimatribe.net?subject=Inquiry%20about%20Court-Ordered%20Community%20Service,team@latofonts.com"
852573367,Free Korean Dogs US,Other ,,CANADA,FORGN,https://www.freekoreandogs.org/,
852773301,Road Dawg Animal Rescue Transport Inc.,Other ,,AFGHANISTAN,FORGN,https://www.rdart.org/,
853201212,Love Does Project,Other ,,USA,FORGN,https://lovedoes.org/,"donate@lovedoes.org,hello@lovedoes.org"
853440823,Macon Head Space,Other ,,GEORGIA,FORGN,http://www.maconheadspace.org/contact,maconheadspace@gmail.com
853548216,Coping Place Foundation Inc.,Other ,,GEORGIA,FORGN,https://copingplace.org/,"contact@sansoxygen.com,filler@godaddy.com"
853749659,Peace of Mind Community Center,Other ,,GEORGIA,FORGN,https://peaceofmindcommunitycenter.org/pages,
853794803,Underground Family Foundation,Other ,,ISRAEL,"FORGN,PF",https://fconline.foundationcenter.org/fdo-grantmaker-profile,
861463003,Astoundiayef,Other ,,SENEGAL,FORGN,https://www.astoundiayefoundation.org/,anf@astoundiayefoundation.org
861992712,Mordecai Projet International,Other ,,AFGHANISTAN,FORGN,https://themordecaiproject.org/,"info@themordecaiproject.org,logo@2x-dark.png,logo@2x-darkfooter1.png,logo@2x-light.png"
862161127,Team Hq,Other ,,AFGHANISTAN,FORGN,https://www.history.uscg.mil/US-Coast-Guard-Photo-Gallery,
862179840,Peach Charitable Foundation,Other ,,UNITED KINGDOM,"FORGN,PF",https://www.peachfoundation.org/,thepeachfoundation24@gmail.com
862930481,Teferra Mekonnen Foundation,Other ,,PORTUGAL,FORGN,https://chasethedreamculture.com/who-we-are,thedreamchase@gmail.com
863289672,Rlc Partyers Inc.,Other ,,CANADA,FORGN,https://rlcpartyers.com/,
863357469,Jolan Primary Academy,Other ,,UGANDA,FORGN,https://www.education.go.ug/,"permasec@education.go.ug,pro@education.go.ug"
863438854,Rescue United Foundation,Other ,,SPAIN,FORGN,https://rescueunited.org/,"info@rescueunited.org,info@rescueunited.org?subject=Equity%20for%20impact,support@rescueunited.org,user@domain.com"
863475015,Forming Sustainable Development Foundation Inc.,Other ,,UNITED KINGDOM,FORGN,https://www.formingsustainabledevelopment.org/,"1eeb89147c984dc6bc3ffafd9e6cd089@sentry.wixpress.com,2062d0a4929b45348643784b5cb39c36@sentry.wixpress.com,271e9fa3230b4eec94b02bf95780f5f2@sentry.wixpress.com,460ff4620fa44cba8df530afde949785@sentry.wixpress.com,605a7baede844d278b89dc95ae0a9123@sentry-next.wixpress.com,78f7996315bc402f9dcb8a2f974b82d1@sentry.wixpress.com,8c4075d5481d476e945486754f783364@sentry.io,8eb368c655b84e029ed79ad7a5c1718e@sentry.wixpress.com,9a65e97ebe8141fca0c4fd686f70996b@sentry.wixpress.com,c183baa23371454f99f417f6616b724d@sentry.wixpress.com,dd0a55ccb8124b9c9d938e3acf41f8aa@sentry.wixpress.com,ed436f5053144538958ad06a5005e99a@sentry.wixpress.com"
863703405,Karens Clothing Kloset Ministry,Other ,,GEORGIA,FORGN,https://karenskloset.com/,kk_Contact@karenskloset.com
863925338,Lake City Heat,Other ,,AFGHANISTAN,FORGN,https://lakecityheattreating.com/,
870747029,Operationmad Inc.,Other ,,ALBANIA,FORGN,http://operationmad.org/,"apittsopmad@gmail.com,info@operationmad.org"
871078954,One West Florissant Community Development Corporation,Other ,,AFGHANISTAN,FORGN,https://opencorporates.com/companies,
871285677,Camperships4kids,Other ,,GEORGIA,FORGN,https://georgia4h.org/,"%20abaynes@uga.edu,%20bjand626@uga.edu,%20josie.smith@uga.edu,Adam.Hammond@uga.edu,Henry.Pinyan@uga.edu,Rebecca.Branch@uga.edu,William.Woodard1@uga.edu,abaynes@uga.edu,adam.hammond@uga.edu,ajcastle@uga.edu,alparker@uga.edu,ashleyc@uga.edu,bethjarr@uga.edu,bjand626@uga.edu,bkelley@uga.edu,bteets@uga.edu,cfhudson@uga.edu,christina.garner25@uga.edu,clh@uga.edu,dlw92@uga.edu,ga4h@uga.edu,jbrown10@uga.edu,jecantw@uga.edu,josie.smith@uga.edu,kaseyb@uga.edu,kbowker@uga.edu,kemarcis.howard@uga.edu,klgandy@uga.edu,ksashley@uga.edu,leeannam@uga.edu,lwooddal@uga.edu,mdmiller@uga.edu,melmel@uga.edu,mhammons@uga.edu,micheles@uga.edu,mmarable@uga.edu,ryanrose@uga.edu,smw66444@uga.edu,stephanie.eggen@uga.edu,stephanie.slate@uga.edu,twfowler@uga.edu,whitingk@uga.edu"
871865164,American Vocational Academy Foundation Inc.,Other ,,AFGHANISTAN,FORGN,https://avafoundationinc.org/,AVA.YourFuture@Gmail.com
872369498,Hope House for Veterans Inc.,Other ,,GUINEA-BISSAU,FORGN,https://www.benefits.va.gov/DesMoines,"osgli.osgli@prudential.com,vapublicaffairs@va.gov"
872465986,Cambodia Projects Fund,Other ,,CAMBODIA,FORGN,https://ppp.mef.gov.kh/project-development-facility,"gdppp.mef@gmail.com,info@dp-wired.de"
872472170,Total Greatness International Foundation,Other ,,ZIMBABWE,FORGN,https://totalgreatnessint.org/,info@totalgreatnessint.org
872480000,J R O Foundation,Other ,,NIGERIA,FORGN,https://www.withinnigeria.com/piece,"anticorruptionunit@cbn.gov.ng,contactcbn@cbn.gov.ng,cpd@cbn.gov.ng,editor@withinnigeria.com,ethicsoffice@cbn.gov.ng,general-info@withinnigeria.com,ifydaviesng@withinnigeria.com,info@betterstudio.com,sec@sec.gov.ng"
872691078,Friends of La Ruta Del Clima Inc.,Other ,,COSTA RICA,FORGN,https://larutadelclima.org/,"info@larutadelclima.org,jennifer.roja@larutadelclima.org"
873518599,Animal Freedom Inc.,Other ,,UNITED KINGDOM,FORGN,https://www.animal-freedom.org/,"18d2f96d279149989b95faf0a4b41882@sentry-next.wixpress.com,2062d0a4929b45348643784b5cb39c36@sentry.wixpress.com,271e9fa3230b4eec94b02bf95780f5f2@sentry.wixpress.com,460ff4620fa44cba8df530afde949785@sentry.wixpress.com,5d1795a2db124a268f1e1bd88f503500@sentry.wixpress.com,605a7baede844d278b89dc95ae0a9123@sentry-next.wixpress.com,78f7996315bc402f9dcb8a2f974b82d1@sentry.wixpress.com,79baaa8e09c746d2b7401643b99792e0@sentry.wixpress.com,8eb368c655b84e029ed79ad7a5c1718e@sentry.wixpress.com,ed436f5053144538958ad06a5005e99a@sentry.wixpress.com,example@mysite.com,info@animal-freedom.org"
873655879,Pine Grove Area Pathway,Other ,,PARAGUAY,FORGN,https://www.pinegroveareapathway.com/,"pgapathway@gmail.com,user@domain.com"
874730809,Sasf-Newmind Inc.,Other ,,GEORGIA,FORGN,https://www.sasfonline.com/,info@sasfonline.com
880533838,Jett-Jetts Legacy,Other ,,AFGHANISTAN,FORGN,https://jett-jetts2ndchancenursery.com/,"AJM3677@YAHOO.COM,JettJetts2ndChanceNursery@yahoo.com,astigma@astigmatic.com,typesetit@att.net"
881936383,Rebels Cash Corp,Other ,,ARMENIA,FORGN,https://www.cba.am/en,
882440477,Hope Career Development Center Inc.,Other ,,NIGERIA,FORGN,https://www.hybridcareer.org/,"hcdcempowerment@gmail.com,info@hybridcareer.org"
882655878,Bridge Institute US Inc.,Other ,,GABON,FORGN,https://www.bridge-institute.org/about-us,ifrah.butt@bridge-institute.org
883013790,Tci Aids Awareness Foundation Inc.,Other ,,TURKS AND CAICOS ISLAN,FORGN,https://www.tcaaf.com/,"drew@thrive.tc,tcaaf1@gmail.com,user@domain.com"
883662476,Sam Stitt Foundation,Other ,,AFGHANISTAN,FORGN,https://samstittfoundation.com/,masmith.ms7@gmail.com
884142559,Royal T Foundation,Other ,,ALBANIA,FORGN,https://royaltf.org/,"anapbm@gmail.com,team@latofonts.com"
900754643,International Centre for the Study of Radicalisation Inc.,Other ,,UNITED KINGDOM,"FORGN,PF",https://icsr.info/,
901019732,Pratt Global Foundation Inc.,Other ,,AUSTRALIA,"FORGN,PF",https://www.visy.com/about,
911550449,Academy of R V Tucker Study Clubs,Other ,,CANADA,FORGN,https://arvtsc.org/,
911621939,Hana Presbyterian Church of Olympia,Other ,,ARUBA,FORGN,http://www.hanapcoly.org/,hanapcoly@gmail.com
920388967,Hlscc Foundation Inc.,Other ,,BRITISH VIRGIN ISLANDS,FORGN,https://hlscc.edu.vg/,
920451125,Friends of Canadian Centre for Men and Families Inc.,Other ,,CANADA,FORGN,https://menandfamilies.org/,"Alberta.Chair@CCMFAlberta.ca,Edmonton.Director@menandfamilies.org,Montreal.Director@menandfamilies.org,NED@menandfamilies.org,OntarioWest.Director@menandfamilies.org,Ottawa.ED@menandfamilies.org,Toronto.Director@menandfamilies.org,Vancouver.Director@menandfamilies.org,Victoria.Director@menandfamilies.org,York.Director@menandfamilies.org,abalakrishnan@menandfamilies.org,advancement@menandfamilies.org,alanstewart@eastlink.ca,bbarberree@CCMFAlberta.ca,bfitzsimmons@ccmfalberta.ca,blog@menandfamilies.org,blogs@menandfamilies.org,brafii@menandfamilies.org,calgary@CCMFAlberta.ca,campus@menandfamilies.org,chair@menandfamilies.org,dbonin@menandfamilies.org,dminor@menandfamilies.org,edmonton@menandfamilies.org,executive.director@ccmfalberta.ca,field.director@bc-malesurvivors.com,halifax@menandfamilies.org,info@CCMFAlberta.ca,info@ccmfalberta.ca,info@menandfamilies.org,klewis@menandfamilies.org,mausterberry@menandfamilies.org,mnugter@menandfamilies.org,montreal@menandfamilies.org,multimedia@menandfamilies.org,nbeaudin@menandfamilies.org,ninfo@ccmfalberta.ca,nominations@menandfamilies.org,nwalker@menandfamilies.org,ontariosw@menandfamilies.org,ontariowest.director@menandfamilies.org,ontariowest@menandfamilies.org,ottawa.chair@menandfamilies.org,ottawa@menandfamilies.org,president@menandfamilies.org,press@menandfamilies.org,pyao@menandfamilies.org,research@menandfamilies.org,secretary@menandfamilies.org,shelter@menandfamilies.org,smcmurtry@menandfamilies.org,toronto@menandfamilies.org,treasurer@menandfamilies.org,vancouver@menandfamilies.org,vchair@menandfamilies.org,victoria.director@menandfamilies.org,victoria@menandfamilies.org,winnipeg@menandfamilies.org,york@menandfamilies.org"
920818975,French Press,Other ,,FRANCE,"FORGN,PF",https://www.afp.com/en,"belux-logo-full-color-rgb-596px@72ppi-1.png,cedmo-logo-full-color-rgb-321px@72ppi.png,cedmo-logo-full-color-rgb-321px@72ppi.png.webp"
921082427,Chinese Youth Foundation,Other ,,CANADA,FORGN,https://chinadevelopmentbrief.org/ngos,"office@cdb.org.cn,smiley.wang@cdb.org.cn,zp@cdb.org.cn"
921660429,Thats A Wrap Ministries,Other ,,NETHERLANDS,"FORGN,PF",https://eintaxid.com/company,
923322408,Solstice Philanthropic Foundation,Other ,,AFGHANISTAN,FORGN,https://philanthropia.io/nonprofits,rohan@philanthropia.io
923604892,Gkpi New Heart Colorado,Other ,,INDONESIA,FORGN,https://opengovco.com/business,
923638038,Vaishnav Sangh Academy,Other ,,AFGHANISTAN,FORGN,https://vaishnavsanghdallas.org/,"nshrivallabhdhamtx@gmail.com,nvaishnavsanghdallas@gmail.com"
931256511,World Apostolate of Fatima Portland Archdiocesan Division Inc.,Other ,,AFGHANISTAN,FORGN,https://www.bluearmy.com/divisions,bluearmy18637@gmail.com
931332969,The Julian A Jackson Foundation Inc.,Other ,,BRITISH VIRGIN ISLANDS,FORGN,https://www.bizapedia.com/vi,
931452364,Shark Research Foundation Inc.,Other ,,CANADA,FORGN,https://sharkresearch.org/,drneilhammer@sharkresearch.org
931910759,Rock of Hope,Other ,,UGANDA,FORGN,https://rockofhopeug.org/,info@rockofhopeug.org
932649170,Club Rotario De Boquete,Other ,,PANAMA,FORGN,https://sites.google.com/view,
932931954,Aspen Network Inc.,Other ,,CANADA,FORGN,https://aspennetworkinc.org/,info@aspennetworkinc.org
933216194,Wvu Alumni Gcdc Inc.,Other ,,AFGHANISTAN,FORGN,https://www.alumni.wvu.edu/,"CindyWoody@wvualumniband.org,EACevents@mail.wvu.edu,FriendsOfWVUArmyROTC@gmail.com,JWF2SVF@comcast.net,Jason.Mcmullen@sodexo.com,Sabrina.Cave@mail.wvu.edu,Tess.Doddy@sodexo.com,aalouk@mail.wvu.edu,addison.wallace@mail.wvu.edu,ajweekley@mail.wvu.edu,alumni@mail.wvu.edu,anthony.dobies@mail.wvu.edu,dallaway@wvuf.org,daniel.sadler@mail.wvu.edu,deana.morrow@mail.wvu.edu,frances.sines@mail.wvu.edu,gary.vandevender@mail.wvu.edu,ht0011@mix.wvu.edu,jdixonwvu@gmail.com,jennifer.wood@mail.wvu.edu,jmyers17@mail.wvu.edu,jrd0020@mail.wvu.edu,katrina.graham@mail.wvu.edu,kbberry@mail.wvu.edu,kpnealis@mail.wvu.edu,ljthorne@mail.wvu.edu,lou.hart@mail.wvu.edu,madisonsantmyer@gmail.com,quincy.perry@mail.wvu.edu,robert.fletcher@mail.wvu.edu,statler-SENG@mail.wvu.edu,tpovenski@mail.wvu.edu,web_services@mail.wvu.edu,wvualumnicheer@gmail.com,wvualumnicomms@mail.wvu.edu"
934422117,Kauai Portuguese Society,Other ,,AFGHANISTAN,FORGN,https://kauaiportuguesesoc.wixsite.com/kauai-portuguese-soc,"046c982186afa15dc9513490293d26b1@o37417.ingest.sentry.io,18d2f96d279149989b95faf0a4b41882@sentry-next.wixpress.com,2062d0a4929b45348643784b5cb39c36@sentry.wixpress.com,271e9fa3230b4eec94b02bf95780f5f2@sentry.wixpress.com,460ff4620fa44cba8df530afde949785@sentry.wixpress.com,5d1795a2db124a268f1e1bd88f503500@sentry.wixpress.com,605a7baede844d278b89dc95ae0a9123@sentry-next.wixpress.com,78f7996315bc402f9dcb8a2f974b82d1@sentry.wixpress.com,79baaa8e09c746d2b7401643b99792e0@sentry.wixpress.com,88170cb0c9d64f94b5821ca7fd2d55a4@sentry-next.wixpress.com,8c4075d5481d476e945486754f783364@sentry.io,9a65e97ebe8141fca0c4fd686f70996b@sentry.wixpress.com,KauaiPortugueseSociety@gmail.com,c183baa23371454f99f417f6616b724d@sentry.wixpress.com,dd0a55ccb8124b9c9d938e3acf41f8aa@sentry.wixpress.com,ed436f5053144538958ad06a5005e99a@sentry.wixpress.com,f36cc48fb72b4d298c835f2793cf3b84@sentry-next.wixpress.com"
934524756,Boys Champions Empowerment Foundation,Other ,,NIGERIA,FORGN,https://www.boyschampions.org/,
934649418,Volpini De Maestri- oneill Charitable Foundation,Other ,,AUSTRIA,"FORGN,PF",https://www.vonfoundation.org/,office@vonfoundation.org
934738221,Live in Victory Outreach Foundation,Other ,,GEORGIA,FORGN,https://livsoberliving.com/,"cjones@livsoberliving.com,djones@livsoberliving.com,johndeo@email.com"
941693715,Walnut Creek Aquabears Swim Team,Other ,,CANADA,FORGN,https://www.gomotionapp.com/team,
954745854,Christian Leadership International Inc.,Other ,,ARMENIA,FORGN,https://www.leadershipintl.org/,info@leadershipintl.org
980000061,American Hospital of Paris,Other ,,FRANCE,FORGN,https://www.american-hospital.org/en,"Information.financiere@ahparis.org,Patient@ahparis.org,callcenter@ahparis.org,cellule.chinoise@ahparis.org,credentialing@ahparis.org,dpo@ahparis.org,exemple@mail.com,fundraising@ahparis.org,gdmtrsf@ahparis.org,information.patients@ahparis.org,information@ahparis.org,intl.patient@ahparis.org,japon@ahparis.org,partenariat@ahparis.org,pascale.launay@ahparis.org,qualite@ahparis.org,relations.patients@ahparis.org"
980013358,American Community School of Athens Inc.,Other ,,GREECE,FORGN,https://www.acs.gr/,"acs@acs.gr,andrikopoulosd@acs.gr,augoustatosm@acs.gr,constantinidesa@acs.gr,dimitropoulosa@acs.gr,dpo@acs.gr,efstathiouv@acs.gr,embrockm@acs.gr,fragkoua@acs.gr,give@acs.gr,kakariss@acs.gr,karatopouzie@acs.gr,kordolaimil@acs.gr,leonardatosh@acs.gr,manosm@acs.gr,moross@acs.gr,pantelit@acs.gr,papadakisj@acs.gr,paterakig@acs.gr,pelonisp@acs.gr,rontogiannisl@acs.gr,tokatlidouj@acs.gr,transportationoffice@acs.gr"
980031121,Westminster Abbey Limited,Other ,,CANADA,FORGN,https://westminsterabbey.ca/,"info@westminsterabbey.ca,masses@westminsterabbey.ca,oblates@westminsterabbey.ca,vocations@westminsterabbey.ca,webmaster@westminsterabbey.ca"
980033473,Mount Allison University,Other ,,CANADA,FORGN,https://mta.ca/,"Provost@mta.ca,academicsupport@mta.ca,accessibility@mta.ca,admissions@mta.ca,advisor@mta.ca,alumni@mta.ca,americanstudies@mta.ca,antiracism@mta.ca,archives@mta.ca,athletics@mta.ca,aviation@mta.ca,biology@mta.ca,bookstore@mta.ca,bsa@mta.ca,canadianstudies@mta.ca,careers@mta.ca,carodriguez@mta.ca,chembiochem@mta.ca,cionescu@mta.ca,circ@mta.ca,classics@mta.ca,cmilner@mta.ca,commerce@mta.ca,communications@mta.ca,conferences@mta.ca,cs@mta.ca,deanofarts@mta.ca,deanofscience@mta.ca,deanofsocialsciences@mta.ca,development@mta.ca,dining@mta.ca,drama@mta.ca,economics@mta.ca,english@mta.ca,financialaid@mta.ca,financialservices@mta.ca,finearts@mta.ca,fixit@mta.ca,geography@mta.ca,gradstudies@mta.ca,helpdesk@mta.ca,hr@mta.ca,indigenous@mta.ca,infodesk@mta.ca,inlr@mta.ca,intadvisor@mta.ca,international@mta.ca,intpa@mta.ca,jlister@mta.ca,kibrown@mta.ca,lkern@mta.ca,lnewman@mta.ca,math@mta.ca,media@mta.ca,mll@mta.ca,music@mta.ca,musiclibrary@mta.ca,owens@mta.ca,philosophy@mta.ca,physics@mta.ca,polisci@mta.ca,polsci@mta.ca,ppe@mta.ca,printjobs@mta.ca,provost@mta.ca,psych@mta.ca,regoffice@mta.ca,religion@mta.ca,research@mta.ca,reservations@mta.ca,resroom@mta.ca,security@mta.ca,shippingreceiving@mta.ca,sociology@mta.ca,spiritualcare@mta.ca,studentlife@mta.ca,summer@mta.ca,svcomplaint@mta.ca,thepond@mta.ca,trhicks@mta.ca,twarren@mta.ca,wellness@mta.ca,wlundell@mta.ca"
980038754,Elizabeth Greenshields Foundation,Other ,,CANADA,"FORGN,PF",https://www.elizabethgreenshieldsfoundation.org/,"--info@greenshieldsfoundation.ca,info@greenshieldsfoundation.ca"
980041019,International Centre for Diarrhoeal Disease Research Bangladesh,Other ,,BANGLADESH,FORGN,https://www.icddrb.org/,
980042539,University of Regina,Other ,,CANADA,FORGN,https://www.uregina.ca/,"Everett.Dorma@uregina.ca,Hospitality.Services@uregina.ca,IT.Support@uregina.ca,Report.Phishing@uregina.ca,SIS.Noncredit@uregina.ca,Service.Desk@uregina.ca,UR.Giving@uregina.ca,cce.studentservices@uregina.ca,cce@uregina.ca,enrolment.services@uregina.ca,esl@uregina.ca,financial.services@uregina.ca,glenys.sylvestre@uregina.ca,grad.funding@uregina.ca,graduate.studies@uregina.ca,housing.services@uregina.ca,hr.support@uregina.ca,international.admissions@uregina.ca,library.help@uregina.ca,protective.services@uregina.ca,purchase@uregina.ca,ras@uregina.ca,regina.rams@uregina.ca,registrar@uregina.ca,research.partnerships@uregina.ca,research.services@uregina.ca,scholarships@uregina.ca,student.affairs@uregina.ca,student.loans@uregina.ca,university.communications@uregina.ca,uparking@uregina.ca,ur.giving@uregina.ca,uralumni@uregina.ca,uregina@bkstr.com,username@uregina.ca"
980050118,American Community School of Abu Dhabi,Other ,,UNITED ARAB EMIRATES,FORGN,https://www.acs.sch.ae/,boardadmin@acs.sch.ae
980052780,Brock University,Other ,,CANADA,FORGN,https://brocku.ca/,
980061413,University of Waterloo,Other ,,CANADA,FORGN,https://uwaterloo.ca/,"alumni@uwaterloo.ca,alumni@uwaterloo.ca?subject=%5BInquiry%20from%20website%5D,aoda@uwaterloo.ca,askus@uwaterloo.ca,community.relations@uwaterloo.ca,development@uwaterloo.ca,ericapeighton@hotmail.com,gradapply@uwaterloo.ca,hire.talent@uwaterloo.ca,marilla.mccargar@uwaterloo.ca,media.relations@uwaterloo.ca,media.relations@uwaterloo.ca?subject=media%20inquiry,myapplication@uwaterloo.ca"
980072997,John Cabot University,Other ,,ITALY,FORGN,https://www.johncabot.edu/,
980085912,Showa Womens University Inc.,Other ,,JAPAN,FORGN,https://www.swu.ac.jp/en,
980098049,Sim Canada,Other ,,CANADA,FORGN,https://www.sim.ca/,"ajax-loader@2x.gif,canada.info@sim.org"
980098988,Jesus Final Command Inc.,Other ,,MEXICO,FORGN,https://eintaxid.com/company,
980099973,International Institute for Environment and Development,Other ,,UNITED KINGDOM,FORGN,https://www.iied.org/,
980108632,Bishops College School Foundation,Other ,,CANADA,"FORGN,SOUNK",https://www.bishopscollegeschool.com/,"accountspayable@bishopscollegeschool.com,admissions@bishopscollegeschool.com,alumni@bishopscollegeschool.com,arommens@bishopscollegeschool.com,careers@bishopscollegeschool.com,cmerritt@bishopscollegeschool.com,communications@bishopscollegeschool.com,gmcconnell@bishopscollegeschool.com,gsheppard@bishopscollegeschool.com,ithelpdesk@bishopscollegeschool.com,jbray@bishopscollegeschool.com,jlowry@bishopscollegeschool.com,jmasse@bishopscollegeschool.com,jwinsor@bishopscollegeschool.com,kjohnson@bishopscollegeschool.com,mlabelle@bishopscollegeschool.com,mwilcott@bishopscollegeschool.com,nurses@bishopscollegeschool.com,security@bishopscollegeschool.com,sedwards@bishopscollegeschool.com,slyster@bishopscollegeschool.com"
980111198,Morley & Rita Cohen Foundation,Other ,,CANADA,"FORGN,PF",https://www.canadahelps.org/en,"info@canadahelps.org,media@canadahelps.org"
980121066,Barnabas Family Ministries Society,Other ,,CANADA,FORGN,https://www.ccca.org/assnfe,"info@ccca.org,info@ccca.org?subject=Contact from website,support@ccca.org,support@ccca.org?subject=Request from CCCA website"
980150395,Foundation for World Evangelism,Other ,,LIECHTENSTEIN,"FORGN,SOUNK",https://fconline.foundationcenter.org/fdo-grantmaker-profile,
980156249,Susila Dharma International Assoc Inc.,Other ,,CANADA,FORGN,https://susiladharmacanada.org/,user@domain.com
980156718,Jack Jackson Evangelical Ministries Association,Other ,,CANADA,FORGN,https://www.jackjackson.ca/makedonation.aspx,"darlene@geminibookkeeping.com,jack@geminibookkeeping.com,jack@jackjackson.ca"
980163869,Toronto Airport Christian Fellowship USA Inc.,Other ,,CANADA,FORGN,https://ctftoronto.com/about,toronto@catchthefire.com
980171203,Babajis Kriya Yoga Order of Acharyas USA Inc.,Other ,,CANADA,FORGN,https://www.babajiskriyayoga.net/english,
980175425,Jewish Community of Ottawa Development Foundation,Other ,,CANADA,FORGN,https://www.ojcf.ca/,"info@ojcf.ca,mreznick@jewishottawa.com,sashe@jewishottawa.com,tributecards@ojcf.ca"
980210704,Mount Sinai Hospital Foundation,Other ,,CANADA,FORGN,https://www.sinaihealth.ca/foundation,"RaptorsForResearch@sinaihealthfoundation.ca,alfred.stephen@believeco.com"
980233371,Haigazian University Inc.,Other ,,LEBANON,FORGN,https://www.haigazian.edu.lb/,"admissions@haigazian.edu.lb,info@haigazian.edu.lb,studentservices@haigazian.edu.lb"
980349699,Organix Foundation Inc.,Other ,,CANADA,"FORGN,PF",https://fconline.foundationcenter.org/fdo-grantmaker-profile,
980361025,St. Thomas University,Other ,,CANADA,FORGN,https://www.stu.ca/,"admissions@stu.ca,financialservices@stu.ca,helpdesk@stu.ca,registrarsoffice@stu.ca,stay@stu.ca"
980367731,Mermaid Theatre of Nova Scotia,Other ,,CANADA,FORGN,https://mermaidtheatre.ca/,"Puppets@mermaidtheatre.ca,e.comtois@stationbleue.com,info@shawentertainment.com,marketing@mermaidtheatre.ca,marketing@mermaidtheatre.ca?subject=Interested%20in%20MermaidTV,puppets@mermaidtheatre.ca,simon@shawentertainment.com,user@domain.com"
980380092,Global Fund to Fight Aids Tuberculosis and Malaria,Other ,,SWITZERLAND,FORGN,https://www.theglobalfund.org/en,
980384135,The Temagami Community Foundation,Other ,,CANADA,FORGN,https://www.temagamicommunityfoundation.com/,info@temagamicommunityfoundation.com
980407553,Foundation for Innovative New Diagnostics Find,Other ,,SWITZERLAND,FORGN,https://www.finddx.org/,"info@finddx.org,nhorekens@gmail.com,testdirectory@finddx.org,u003enhorekens@gmail.com,vbd@finddx.org"
980415977,Friends of Teen Ranch Foundation Inc.,Other ,,CANADA,FORGN,https://teenranch.com/families,
980420608,George R Gardiner Museum of Ceramic Art-Us,Other ,,CANADA,"FORGN,SOUNK",https://www.gardinermuseum.on.ca/,"Img_StressTest@2x.png,Img_StressTest@2x.pnghttps,JBradshaw@globeandmail.com,SBein@globeandmail.com,acyr@globeandmail.com,aislingmurphy@globeandmail.com,apicard@globeandmail.com,aradwanski@globeandmail.com,bhertz@globeandmail.com,cdawsonmarch@globeandmail.com,cireland@globeandmail.com,cohara@globeandmail.com,dietitian@globeandmail.com,dleeder@globeandmail.com,eatkins@globeandmail.com,egraney@globeandmail.com,harvey@harveyschachter.com,ibailey@globeandmail.com,isemeniuk@globeandmail.com,jbradshaw@globeandmail.com,jeffjones@globeandmail.com,jeffrubin@sympatico.ca,jheinzl@globeandmail.com,jmahoney@globeandmail.com,knestruck@globeandmail.com,ktaylor@globeandmail.com,kyakabuski@globeandmail.com,mhager@globeandmail.com,mlederman@globeandmail.com,mmackinnon@globeandmail.com,mmcclearn@globeandmail.com,nmacdonald@globeandmail.com,publiceditor@globeandmail.com,pwaldie@globeandmail.com,rcarrick@globeandmail.com,rfife@globeandmail.com,schase@globeandmail.com,sdingman@globeandmail.com,sfarooqui@globeandmail.com,slevitz@globeandmail.com,tim@ourfamilyoffice.ca"
980432039,Documentation Center of Cambodia,Other ,,CAMBODIA,FORGN,http://www.dccam.org/,"dccam@online.com.kh,truthpheana.s@dccam.org,truthsophat.m@dccam.org"
980450094,Nova Scotia Nature Trust,Other ,,CANADA,FORGN,https://nsnt.ca/,"nature@nsnt.ca,office@nsnt.ca"
980534416,American Friends of Singapore Management University Inc.,Other ,,SINGAPORE,FORGN,https://www.smu.edu.sg/,
980549367,Lions Roar Foundation,Other ,,CANADA,FORGN,https://www.lionsroar.com/donate-canada,
980567045,Living Oceans Society,Other ,,CANADA,FORGN,https://livingoceans.org/,
980589812,Ben-Gurion University of the Negev,Other ,,ISRAEL,FORGN,https://www.bgu.ac.il/en,
980599690,Bath Fitter Foundation Inc.,Other ,,CANADA,FORGN,https://www.bathfitter.com/ca-en,"375px-ath-Header-accessories-grabbar-overview@2x-preview.jpg,Tool_StoreLocator@2x-opt-preview.png,Tool_StoreLocator@2x-opt.png,faucet-shower-straight-view@2x-scaled-opt-preview.jpg,gallery-closeup-prestige-door@2x-preview.jpg,iPad-Mobile-@2x-BF-preview.png,iPad-Mobile-@2x-BF.png,ourstory-traditional-prettymoment@2x-scaled-opt-preview.jpg,privacy@bathfitter.com,solutions-cornershelf-beautyshot@2x-preview.jpg,wall-cleaning@2x-scaled-opt-preview.jpg"
980671580,Kingsburg Coastal Conservancy Association,Other ,,CANADA,FORGN,https://kccns.org/,contact@kccns.org
980672517,Zoocheck Canada Incorporated,Other ,,CANADA,FORGN,https://www.zoocheck.com/,zoocheck@zoocheck.com
980682757,Camp Qwanoes,Other ,,CANADA,FORGN,https://qwanoes.ca/,
981051915,Magnetawan Watershed Land Tr,Other ,,CANADA,FORGN,https://www.mwlt.org/,"2062d0a4929b45348643784b5cb39c36@sentry.wixpress.com,605a7baede844d278b89dc95ae0a9123@sentry-next.wixpress.com,8c4075d5481d476e945486754f783364@sentry.io,8eb368c655b84e029ed79ad7a5c1718e@sentry.wixpress.com,9a65e97ebe8141fca0c4fd686f70996b@sentry.wixpress.com,info@mwlt.org"
981057492,Thousand Islands Watershed Land Tr,Other ,,CANADA,FORGN,https://www.tiwlt.ca/,"calder@tiwlt.ca,don@tiwlt.ca,info@tiwlt.ca,marnie@tiwlt.ca"
981067560,Universite Laval,Other ,,CANADA,FORGN,https://www.ulaval.ca/,
981171352,La Corporation Du College De L Assomption,Other ,,CANADA,FORGN,https://classomption.qc.ca/college,
981172246,Stichting Travelling Animal Doctors,Other ,,NETHERLANDS,FORGN,http://www.travellinganimaldoctors.org/about-us.html,
981198220,North American Black Historical Museum Incorporated,Other ,,CANADA,FORGN,https://www.soulofamerica.com/international,"Bostonmurrell@gmail.com,contact@blackboston.com,odedixon@deeprhythminc.com,travel-header@2x.png"
981227060,Alpha Ministries Canada,Other ,,CANADA,FORGN,https://alphacanada.org/,"Communications@alphacanada.org,jwilliams@alphacanada.org,office@alphacanada.org,pong@alphacanada.org,prisons@alphacanada.org,swilkinson@alphacanada.org,youth@alphacanada.org"
981246110,Combat Veterans Motorcycle Association Korea Inc.,Other ,,REPUBLIC OF KOREA,FORGN,https://www.cvma31-1.com/,"605a7baede844d278b89dc95ae0a9123@sentry-next.wixpress.com,88170cb0c9d64f94b5821ca7fd2d55a4@sentry-next.wixpress.com,8c4075d5481d476e945486754f783364@sentry.io,wm.cvmact@gmail.com"
981253233,Museum Kampa- the Jan and Meda Mladek Foundation,Other ,,CZECH REPUBLIC,FORGN,https://www.museumkampa.cz/foundation,"adela.petrickova@museumkampa.cz,alena.holubova@museumkampa.cz,alexandra.slosarcikova@museumkampa.cz,anna.langerova@museumkampa.cz,daniel.hrdlicka@museumkampa.cz,jan.skrivanek@museumkampa.cz,kristyna.fabianova@museumkampa.cz,martina.vitkova@museumkampa.cz,petr.medek@museumkampa.cz,rezervace@museumkampa.cz,sandra.prusa@museumkampa.cz,shop@museumkampa.cz"
981289290,Changchub Buddhist Church,Other ,,CANADA,FORGN,https://my.charitableimpact.com/charities,
981332758,Save Our Sons Inc.,Other ,,AUSTRALIA,FORGN,https://saveoursons.org.au/,"Save_Our_Sons_logo_250x@2x.png,info@saveoursons.org.au,u003einfo@saveoursons.org.au"
981404185,Hope Thailand,Other ,,CANADA,FORGN,https://hopethailand.org/,info@hopethailand.org
981505324,Sherman Foundation,Other ,,CANADA,"FORGN,PF",https://www.theshermanfoundation.com/about-us,"605a7baede844d278b89dc95ae0a9123@sentry-next.wixpress.com,8eb368c655b84e029ed79ad7a5c1718e@sentry.wixpress.com"
981511659,Rwenzori Center for Research and Advocacy,Other ,,UGANDA,FORGN,https://www.girlsnotbrides.org/our-partnership,Donor.Engagement@GirlsNotBrides.org
